{
  "type": "FeatureCollection",
  "generator": "overpass-turbo",
  "copyright": "The data included in this document is from www.openstreetmap.org. The data is made available under ODbL.",
  "timestamp": "2026-09-20T09:14:51Z",
  "features": [
    {
      "type": "Feature",
      "properties": {
        "@id": "relation/10351629",
        "admin_level": "6",
        "boundary": "administrative",
        "name": "Khed",
        "name:mr": "खेड",
        "ref:LGD:subdistrict": "4190",
        "type": "boundary",
        "wikidata": "Q6401178",
        "wikipedia": "en:Khed taluka, Pune"
      },
      "geometry": {
        "type": "Polygon",
        "coordinates": [
          [
            [73.9969968, 18.6730805], [73.9990139, 18.6759264], [74.0024471, 18.6785283], [74.0025329, 18.6812929],
            [74.0000438, 18.6844639], [73.9980268, 18.6879194], [73.9978551, 18.690074], [74.0012025, 18.692757],
            [74.004507, 18.6939765], [74.0075111, 18.6932448], [74.0114593, 18.691822], [74.0145063, 18.6912935],
            [74.0184116, 18.6909277], [74.021244, 18.6925537], [74.026823, 18.6994237], [74.0306425, 18.714301],
            [74.0336895, 18.7261287], [74.0347623, 18.7353139], [74.0337753, 18.7408004], [74.034934, 18.7456771],
            [74.0360498, 18.7474652], [74.0365219, 18.7489282], [74.0331745, 18.7501879], [74.0292263, 18.7525856],
            [74.0274667, 18.7543329], [74.0254926, 18.7566899], [74.0233898, 18.7593312], [74.0235614, 18.7628665],
            [74.0196991, 18.7657921], [74.0165233, 18.7672143], [74.0129613, 18.7684333], [74.0109872, 18.7693273],
            [74.0096569, 18.7717246], [74.0099573, 18.7757878], [74.0079402, 18.7802166], [74.0060949, 18.7846046],
            [74.0036058, 18.7873268], [74.0015029, 18.7887894], [73.9995718, 18.7918365], [74.000945, 18.7977681],
            [73.9992284, 18.7999619], [73.997426, 18.8012619], [73.9963531, 18.8032119], [73.9979839, 18.80569],
            [74.0003871, 18.8074775], [74.0030908, 18.8078837], [74.0066957, 18.8065431], [74.0096998, 18.8062588],
            [74.0122318, 18.8062588], [74.014635, 18.8063806], [74.0162658, 18.8069494], [74.0196561, 18.811418],
            [74.0214157, 18.812921], [74.0238189, 18.8139772], [74.0335607, 18.813571], [74.0339899, 18.8241731],
            [74.0353632, 18.8314845], [74.0346336, 18.8388769], [74.0336036, 18.8416388], [74.0307283, 18.8433446],
            [74.0272951, 18.8439539], [74.0239477, 18.8445225], [74.0213728, 18.8449286], [74.0204286, 18.8455785],
            [74.0211153, 18.850574], [74.0226173, 18.8539043], [74.0242481, 18.8550008], [74.027853, 18.8546759],
            [74.0299129, 18.8554476], [74.0309, 18.856138], [74.0351915, 18.8611738], [74.0395689, 18.8698237],
            [74.0430879, 18.8730318], [74.0439033, 18.8800975], [74.0443325, 18.8850108], [74.04459, 18.8888276],
            [74.0433883, 18.8910608], [74.0413284, 18.8921165], [74.0393114, 18.8931316], [74.0373802, 18.8941873],
            [74.0339469, 18.8953648], [74.0305566, 18.8961362], [74.0298271, 18.8976791], [74.02987, 18.9041347],
            [74.0300846, 18.9081135], [74.030857, 18.9099405], [74.0315437, 18.9118487], [74.030385, 18.9134726],
            [74.0284538, 18.9152183], [74.025278, 18.9175324], [74.022746, 18.9209831], [74.0133905, 18.9252457],
            [74.0098285, 18.9260576], [74.0068674, 18.9268289], [74.0048074, 18.9281685], [74.0002584, 18.9291834],
            [73.995881, 18.929224], [73.9921474, 18.9295893], [73.987813, 18.9293052], [73.9815473, 18.9271537],
            [73.978672, 18.9263012], [73.9777708, 18.9254893], [73.9783287, 18.9227287], [73.9793586, 18.9213485],
            [73.9807748, 18.919278], [73.9816761, 18.9165986], [73.9821052, 18.9114021], [73.9816331, 18.9053121],
            [73.980174, 18.9020641], [73.9781141, 18.8966234], [73.9757967, 18.8922383], [73.9703893, 18.8902487],
            [73.9542961, 18.8940655], [73.9503479, 18.8943497], [73.945713, 18.8945121], [73.9430522, 18.8952024],
            [73.941679, 18.8962986], [73.9408207, 18.8986536], [73.9398765, 18.9049061], [73.9371728, 18.9069767],
            [73.9363145, 18.9095751], [73.9356708, 18.9111179], [73.9339971, 18.912011], [73.9306068, 18.913026],
            [73.9236116, 18.9135132], [73.92035, 18.9151777], [73.9150714, 18.9169234], [73.9112091, 18.9170046],
            [73.9077758, 18.9172076], [73.9034843, 18.9170046], [73.8992786, 18.9164768], [73.8972616, 18.916964],
            [73.8970041, 18.9190345], [73.896532, 18.9216327], [73.8942146, 18.9314567], [73.8940858, 18.9337705],
            [73.8943433, 18.9373427], [73.8953304, 18.9401841], [73.8953733, 18.9421325], [73.8947296, 18.9441215],
            [73.893485, 18.9460293], [73.8919401, 18.9471658], [73.8909101, 18.9459481], [73.8891506, 18.9433503],
            [73.8877344, 18.9428632], [73.8880777, 18.9448115], [73.8875627, 18.9468817], [73.884902, 18.9468005],
            [73.8821554, 18.9442433], [73.8800954, 18.9431879], [73.8791513, 18.9497229], [73.8782072, 18.9518336],
            [73.8768768, 18.9541066], [73.8749027, 18.9562577], [73.8718128, 18.9572318], [73.8690233, 18.9565418],
            [73.8612127, 18.9608035], [73.8586807, 18.9629546], [73.8557624, 18.965755], [73.8518142, 18.9692454],
            [73.8503551, 18.9706658], [73.8475227, 18.9715993], [73.8447761, 18.9730603], [73.8444757, 18.9744807],
            [73.8445186, 18.9765099], [73.844347, 18.979513], [73.8431453, 18.9826378], [73.8375234, 18.9849509],
            [73.8328456, 18.9863307], [73.8285541, 18.9913626], [73.8273525, 18.9931481], [73.8261509, 18.9949335],
            [73.8229751, 18.9966378], [73.8203144, 18.9986667], [73.8170099, 18.9985855], [73.8146495, 18.9974088],
            [73.8122034, 18.9955422], [73.809843, 18.9937973], [73.8080835, 18.99258], [73.8065385, 18.9937567],
            [73.8068819, 18.9956639], [73.8085556, 18.9972871], [73.8096284, 18.9991131], [73.8092422, 19.0010202],
            [73.8073539, 19.0023592], [73.8038349, 19.0021969], [73.80023, 19.0010608], [73.7973547, 18.9996],
            [73.795638, 18.9974088], [73.7947368, 18.9965161], [73.7929773, 18.9978551], [73.7928915, 19.0016694],
            [73.7932777, 19.0048344], [73.794136, 19.007066], [73.7944793, 19.0093383], [73.7933206, 19.0108801],
            [73.7903595, 19.0118539], [73.7879562, 19.0133146], [73.7852525, 19.014126], [73.7835359, 19.0133957],
            [73.7820339, 19.0130305], [73.7813472, 19.0139232], [73.780961, 19.0157084], [73.7802743, 19.0173719],
            [73.7778282, 19.0170879], [73.7754678, 19.0160736], [73.7725067, 19.0158301], [73.770833, 19.0219566],
            [73.7704467, 19.0259732], [73.7693309, 19.0287725], [73.7675714, 19.0309633], [73.7658119, 19.0324238],
            [73.762722, 19.0343306], [73.7575292, 19.0361967], [73.7523794, 19.0387525], [73.7481737, 19.0412677],
            [73.7456846, 19.0424036], [73.7423801, 19.0425253], [73.7383031, 19.0422007], [73.7324237, 19.0415922],
            [73.7280035, 19.0426064], [73.7204504, 19.0486913], [73.7163734, 19.0495838], [73.713026, 19.0507602],
            [73.7090349, 19.0509224], [73.7061166, 19.050963], [73.701868, 19.0518554], [73.6976194, 19.053478],
            [73.6906671, 19.0571693], [73.6896801, 19.0604143], [73.6890363, 19.0637404], [73.6827278, 19.0702707],
            [73.6798524, 19.0717714], [73.6771059, 19.0730288], [73.673973, 19.0739616], [73.6707973, 19.0753406],
            [73.668437, 19.0756245], [73.6656475, 19.0751784], [73.6631584, 19.0739211], [73.6612272, 19.0727448],
            [73.6597681, 19.0727854], [73.6582231, 19.0742861], [73.6550903, 19.0732721], [73.6532449, 19.0710819],
            [73.6523437, 19.0692161], [73.6514854, 19.0654034], [73.6502838, 19.0640243], [73.6482238, 19.0633753],
            [73.644061, 19.0631725], [73.6400699, 19.0613472], [73.6380529, 19.0627264], [73.6363363, 19.0639026],
            [73.6335897, 19.0656062], [73.6314868, 19.0670259], [73.6295557, 19.0681616], [73.6286115, 19.070798],
            [73.6290407, 19.0732721], [73.6293411, 19.075219], [73.6277103, 19.0765574], [73.6224317, 19.0762329],
            [73.6192131, 19.0765574], [73.6168098, 19.0757057], [73.6095142, 19.0763546], [73.6008882, 19.0759896],
            [73.5980129, 19.0775714], [73.5909318, 19.0795993], [73.5887003, 19.0785042], [73.5865974, 19.0787881],
            [73.5849237, 19.0772469], [73.5799884, 19.0741239], [73.5779285, 19.0696217], [73.5773277, 19.0670259],
            [73.5778856, 19.066093], [73.5783577, 19.0648761], [73.5782289, 19.061185], [73.5787225, 19.0588526],
            [73.5780573, 19.0582645], [73.5734653, 19.0576763], [73.5676932, 19.0569462], [73.5616851, 19.0588323],
            [73.5588527, 19.0602723], [73.554089, 19.0606374], [73.5520291, 19.06155], [73.5471582, 19.0643285],
            [73.5444975, 19.0648761], [73.5442829, 19.0662146], [73.5432529, 19.0678776], [73.5425233, 19.0699057],
            [73.5411071, 19.0716903], [73.5390043, 19.0721567], [73.5370731, 19.0735966], [73.5332751, 19.0730085],
            [73.5313654, 19.0731707], [73.5291981, 19.076091], [73.5244775, 19.081688], [73.5234475, 19.0808565],
            [73.5216021, 19.0769832], [73.5209799, 19.0743672], [73.5211301, 19.0716092], [73.5215592, 19.0669042],
            [73.5225677, 19.0632131], [73.523426, 19.0587512], [73.5244775, 19.0572301], [73.5254645, 19.0556887],
            [73.5249924, 19.0550397], [73.5236406, 19.0549991], [73.5223317, 19.0553236], [73.5206151, 19.0559524],
            [73.5196495, 19.0565405], [73.5184693, 19.0574126], [73.5177183, 19.0570476], [73.517611, 19.056074],
            [73.5176968, 19.0547963], [73.5177612, 19.0528086], [73.5176342, 19.0524286], [73.5172462, 19.0512672],
            [73.5164308, 19.0492998], [73.5158729, 19.0481437], [73.5152507, 19.0471498], [73.5152292, 19.0463791],
            [73.5159158, 19.0460951], [73.5172891, 19.0462574], [73.5186839, 19.046947], [73.5195422, 19.0477177],
            [73.5208297, 19.0483059], [73.5222459, 19.0482451], [73.5241341, 19.0480625], [73.5261082, 19.0479206],
            [73.5279965, 19.0474338], [73.5299921, 19.0471498], [73.5337901, 19.0483262], [73.5378456, 19.0485899],
            [73.5397982, 19.0487522], [73.5407424, 19.0483871], [73.5404205, 19.0472512], [73.5397124, 19.0463182],
            [73.5382962, 19.0446347], [73.5374594, 19.0431743], [73.5355711, 19.0384077], [73.5344338, 19.0362778],
            [73.5338759, 19.0348377], [73.5338759, 19.0334583], [73.5342192, 19.0324441], [73.5350132, 19.0313487],
            [73.5359788, 19.030801], [73.5375881, 19.0295434], [73.5415792, 19.026744], [73.542695, 19.0248777],
            [73.5431671, 19.0238026], [73.5427594, 19.0224232], [73.5419225, 19.0204554], [73.5408926, 19.0191571],
            [73.5402918, 19.0184065], [73.5402703, 19.0176965], [73.540678, 19.0169864], [73.5420728, 19.0162358],
            [73.5436177, 19.0145926], [73.5448193, 19.0138826], [73.5459566, 19.0128479], [73.5473084, 19.012077],
            [73.548553, 19.012077], [73.5497117, 19.0125031], [73.5507202, 19.0128682], [73.5516858, 19.0131117],
            [73.5529947, 19.0131522], [73.5536599, 19.0127465], [73.5535526, 19.0120973], [73.5530162, 19.0109612],
            [73.5523295, 19.0100077], [73.5516429, 19.0091354], [73.5506344, 19.0082224], [73.5497331, 19.0075732],
            [73.5484671, 19.0068429], [73.5449052, 19.0034142], [73.543725, 19.0026432], [73.5429954, 19.0013042],
            [73.5421371, 19.0002289], [73.5406351, 18.9979566], [73.5400772, 18.9974493], [73.5384464, 18.9973073],
            [73.5374164, 18.9972667], [73.5362792, 18.9975102], [73.5349059, 18.997774], [73.5342622, 18.9976117],
            [73.533833, 18.9971856], [73.5336399, 18.9966784], [73.5336399, 18.9922959], [73.5332966, 18.9910582],
            [73.5323953, 18.9901046], [73.5316229, 18.9893336], [73.5304642, 18.9885017], [73.5280609, 18.9877104],
            [73.5265374, 18.9876698], [73.5253787, 18.9872234], [73.5239196, 18.9857625], [73.5230827, 18.9842407],
            [73.5224604, 18.9831045], [73.5241556, 18.9809333], [73.5253143, 18.9790463], [73.5267949, 18.9776259],
            [73.5279536, 18.9764693], [73.5286402, 18.9752721], [73.5291767, 18.9741763], [73.5349702, 18.9664044],
            [73.5365581, 18.9638069], [73.5381889, 18.9617776], [73.5374164, 18.95987], [73.5379314, 18.958693],
            [73.5395193, 18.9574754], [73.5425663, 18.9552024], [73.5491323, 18.9480182], [73.5510206, 18.9452986],
            [73.5544109, 18.9437968], [73.557415, 18.943472], [73.5603332, 18.9421325], [73.5625648, 18.9397782],
            [73.5657405, 18.9365714], [73.5674142, 18.9344606], [73.5693883, 18.9324715], [73.5705471, 18.9304012],
            [73.5722637, 18.9286557], [73.5738515, 18.9284527], [73.5777568, 18.9280873], [73.5804176, 18.9258546],
            [73.5829925, 18.9228911], [73.5833594, 18.9223618], [73.5847091, 18.9204148], [73.5871553, 18.9162333],
            [73.5893211, 18.9116545], [73.5898857, 18.910461], [73.5901811, 18.9098363], [73.5906574, 18.9088294],
            [73.5920906, 18.9057993], [73.5976266, 18.8982069], [73.6026048, 18.8947151], [73.61063, 18.8908172],
            [73.6117029, 18.886838], [73.612647, 18.8843205], [73.6169815, 18.8825338], [73.6191272, 18.8816405],
            [73.6219167, 18.8801381], [73.6285414, 18.8780653], [73.6291034, 18.8778894], [73.6326885, 18.8767677],
            [73.6361217, 18.8759962], [73.6372804, 18.8734379], [73.6395549, 18.8705141], [73.6412286, 18.8681181],
            [73.642044, 18.866047], [73.642044, 18.8634074], [73.6417007, 18.8607271], [73.6416578, 18.8591838],
            [73.6433744, 18.8565441], [73.645606, 18.854148], [73.6480006, 18.8527086], [73.6487817, 18.8522391],
            [73.6528158, 18.8509395], [73.656249, 18.8496399], [73.6585235, 18.8485839], [73.6602401, 18.8471218],
            [73.6622572, 18.844888], [73.6637592, 18.8424917], [73.6705827, 18.8325], [73.6728572, 18.8301035],
            [73.6748743, 18.8290881], [73.6764621, 18.8293318], [73.6787796, 18.8300629], [73.6819553, 18.8304691],
            [73.6852598, 18.8303878], [73.6876201, 18.829941], [73.6896801, 18.8288037], [73.6918258, 18.8279913],
            [73.6999368, 18.8275039], [73.7044, 18.8274227], [73.7094211, 18.8269352], [73.7117385, 18.8243762],
            [73.7129402, 18.8216953], [73.7146997, 18.8186487], [73.7161159, 18.8158052], [73.7172317, 18.8136522],
            [73.7194204, 18.8120679], [73.7224245, 18.8107274], [73.7253856, 18.8099149], [73.7368011, 18.8085337],
            [73.7409639, 18.8049588], [73.7417364, 18.8026432], [73.7413072, 18.8006931], [73.7398481, 18.7986619],
            [73.7389469, 18.7941929], [73.7346553, 18.7866767], [73.7334537, 18.7836702], [73.7321662, 18.7812324],
            [73.7300205, 18.7773724], [73.7306213, 18.7756659], [73.7339687, 18.772009], [73.7360715, 18.7695304],
            [73.7375736, 18.7669705], [73.7389898, 18.7656296], [73.7404918, 18.7655483], [73.7419509, 18.7670111],
            [73.7435817, 18.7686365], [73.7453842, 18.7705462], [73.7506198, 18.7737968], [73.7529373, 18.7742438],
            [73.7564134, 18.774], [73.7583017, 18.7735531], [73.7639665, 18.7711964], [73.7671852, 18.7695711],
            [73.7677431, 18.7677832], [73.7680864, 18.7659953], [73.7666702, 18.763923], [73.770318, 18.7614036],
            [73.7711334, 18.759575], [73.771348, 18.7568524], [73.768816, 18.7513664], [73.7681722, 18.7489282],
            [73.767786, 18.7466931], [73.7678289, 18.7444986], [73.767444, 18.7390163], [73.7589883, 18.7391341],
            [73.7561784, 18.7393793], [73.7557697, 18.7394186], [73.7533235, 18.7399469], [73.7511777, 18.7403939],
            [73.7482595, 18.74141], [73.7452983, 18.7420602], [73.7427663, 18.7426291], [73.7397623, 18.7423447],
            [73.7386465, 18.7405159], [73.7380027, 18.7374678], [73.7379598, 18.7347449], [73.7380027, 18.7318999],
            [73.7371873, 18.7294208], [73.7365865, 18.7276325], [73.7349987, 18.7260474], [73.7340545, 18.7249906],
            [73.7339258, 18.7168617], [73.7311363, 18.71613], [73.7287759, 18.7166584], [73.7261581, 18.7163333],
            [73.7242698, 18.7132035], [73.7237978, 18.711537], [73.723669, 18.7097485], [73.7244415, 18.7081632],
            [73.7255144, 18.7080006], [73.7286901, 18.7084478], [73.7303638, 18.7075942], [73.7327241, 18.7058869],
            [73.7349987, 18.704261], [73.739376, 18.7030415], [73.7425518, 18.7028383], [73.7440967, 18.7045455],
            [73.7450409, 18.7078381], [73.7452983, 18.7108053], [73.7471437, 18.7137726], [73.7486887, 18.7161707],
            [73.7502336, 18.7188127], [73.7527656, 18.7221862], [73.7552547, 18.721983], [73.7569713, 18.7205197],
            [73.7589025, 18.718772], [73.7609195, 18.7181623], [73.7630653, 18.7190972], [73.7647819, 18.7210075],
            [73.7652969, 18.7226333], [73.7666273, 18.7274292], [73.7665844, 18.7331192], [73.7675285, 18.7361267],
            [73.767445, 18.7390135], [73.7702322, 18.7394592], [73.7752103, 18.7368989], [73.777914, 18.7345417],
            [73.7804889, 18.7328347], [73.7839222, 18.7297053], [73.7857675, 18.7261693], [73.7873983, 18.7213733],
            [73.7880849, 18.7187314], [73.7901449, 18.7166178], [73.7922477, 18.7139351], [73.7985134, 18.7055211],
            [73.8007021, 18.7036106], [73.8034915, 18.7029196], [73.8050794, 18.7033261], [73.8076973, 18.7044236],
            [73.8084548, 18.7047311], [73.8101005, 18.7053992], [73.8130188, 18.7046675], [73.81392, 18.7037326],
            [73.8139574, 18.703563], [73.8145208, 18.7010091], [73.8149499, 18.6981229], [73.8150438, 18.6964925],
            [73.8150787, 18.6958871], [73.8161945, 18.6888544], [73.8173103, 18.6869844], [73.820486, 18.6872689],
            [73.8229322, 18.6884072], [73.8256788, 18.6895048], [73.8302278, 18.6901146], [73.8343906, 18.6898707],
            [73.8383388, 18.688895], [73.8410854, 18.6884479], [73.8438749, 18.6886511], [73.8530159, 18.6884885],
            [73.8550758, 18.6853582], [73.8555528, 18.6845175], [73.8569212, 18.6821059], [73.8604831, 18.6814961],
            [73.8628864, 18.6834475], [73.8644313, 18.6852363], [73.8667917, 18.6873096], [73.8690662, 18.6887324],
            [73.8710403, 18.689017], [73.8744735, 18.6877974], [73.8784217, 18.6857648], [73.8809537, 18.6833662],
            [73.8821554, 18.6812929], [73.8839149, 18.679626], [73.8855886, 18.6793821], [73.8915968, 18.6785283],
            [73.8946008, 18.6775526], [73.8968753, 18.6752759], [73.8982486, 18.6719014], [73.8998365, 18.6686489],
            [73.9018964, 18.6659248], [73.9050293, 18.6621842], [73.9086341, 18.6584436], [73.9121532, 18.6584842],
            [73.9139556, 18.6575897], [73.9161872, 18.6558007], [73.9188909, 18.6539709], [73.9210367, 18.653117],
            [73.9237403, 18.6532797], [73.9256286, 18.6539709], [73.9296197, 18.6559633], [73.9318084, 18.6577117],
            [73.9344692, 18.6604765], [73.9362287, 18.6628348], [73.9394044, 18.6627128], [73.9404344, 18.6615337],
            [73.9406919, 18.659704], [73.9406061, 18.6573458], [73.9405202, 18.6543775], [73.9410781, 18.6503114],
            [73.9448118, 18.6452693], [73.9475154, 18.6436834], [73.9510774, 18.6431141], [73.9551115, 18.6414062],
            [73.9572572, 18.640227], [73.9606905, 18.6391697], [73.96348, 18.6382751], [73.9666986, 18.6367705],
            [73.9679861, 18.6352659], [73.9684581, 18.6345339], [73.9683723, 18.63124], [73.9658832, 18.6284746],
            [73.9645099, 18.6264413], [73.9628362, 18.6241639], [73.9623642, 18.6221305], [73.9633941, 18.6203817],
            [73.9651107, 18.619243], [73.967514, 18.619609], [73.9712905, 18.6217238], [73.9762687, 18.6251399],
            [73.9802599, 18.628434], [73.982234, 18.6315653], [73.9839935, 18.6345746], [73.9844656, 18.6371365],
            [73.9846372, 18.6409589], [73.9845514, 18.6470178], [73.9836072, 18.6492949], [73.9810323, 18.6508807],
            [73.979187, 18.6519379], [73.9783287, 18.6534017], [73.9786291, 18.6558007], [73.9804744, 18.6590941],
            [73.9819765, 18.6605579], [73.984723, 18.6612897], [73.9869117, 18.6618996], [73.9884996, 18.6630381],
            [73.9897871, 18.6647051], [73.9890146, 18.6671039], [73.9877271, 18.6702345], [73.9854097, 18.6722267],
            [73.9844226, 18.673487], [73.9837789, 18.6754792], [73.9839077, 18.6782031], [73.9863967, 18.6802358],
            [73.9891862, 18.6809676], [73.9915895, 18.6800732], [73.9924478, 18.6793414], [73.9935636, 18.677268],
            [73.9942503, 18.6758044], [73.9969968, 18.6730805]
          ]
        ]
      },
      "id": "relation/10351629"
    }
  ]
}
