{"type": "FeatureCollection", "features": [{"type": "Feature", "properties": {"name": "Real Catchment Boundary (PySheds)", "source": "SRTM"}, "geometry": {"type": "Polygon", "coordinates": [[[73.60291666660903, 19.09208333334263], [73.60291666660903, 19.091250000009296], [73.59958333327569, 19.091250000009296], [73.59958333327569, 19.087916666675966], [73.59874999994236, 19.087916666675966], [73.59874999994236, 19.08708333334263], [73.59708333327569, 19.08708333334263], [73.59708333327569, 19.0837500000093], [73.59374999994236, 19.0837500000093], [73.59374999994236, 19.082916666675967], [73.59291666660903, 19.082916666675967], [73.59291666660903, 19.081250000009298], [73.5920833332757, 19.081250000009298], [73.5920833332757, 19.080416666675966], [73.59124999994236, 19.080416666675966], [73.59124999994236, 19.079583333342633], [73.59041666660903, 19.079583333342633], [73.59041666660903, 19.0787500000093], [73.5895833332757, 19.0787500000093], [73.5895833332757, 19.079583333342633], [73.58791666660903, 19.079583333342633], [73.58791666660903, 19.081250000009298], [73.5870833332757, 19.081250000009298], [73.5870833332757, 19.08208333334263], [73.58541666660904, 19.08208333334263], [73.58541666660904, 19.082916666675967], [73.58374999994237, 19.082916666675967], [73.58374999994237, 19.0837500000093], [73.58124999994237, 19.0837500000093], [73.58124999994237, 19.084583333342632], [73.58041666660904, 19.084583333342632], [73.58041666660904, 19.0837500000093], [73.5795833332757, 19.0837500000093], [73.5795833332757, 19.082916666675967], [73.57791666660903, 19.082916666675967], [73.57791666660903, 19.08208333334263], [73.5770833332757, 19.08208333334263], [73.5770833332757, 19.081250000009298], [73.57791666660903, 19.081250000009298], [73.57791666660903, 19.0787500000093], [73.5745833332757, 19.0787500000093], [73.5745833332757, 19.077916666675968], [73.57374999994236, 19.077916666675968], [73.57374999994236, 19.0787500000093], [73.5720833332757, 19.0787500000093], [73.5720833332757, 19.079583333342633], [73.56874999994237, 19.079583333342633], [73.56874999994237, 19.0787500000093], [73.56791666660904, 19.0787500000093], [73.56791666660904, 19.07708333334263], [73.56541666660904, 19.07708333334263], [73.56541666660904, 19.077916666675968], [73.56374999994237, 19.077916666675968], [73.56374999994237, 19.07708333334263], [73.56291666660904, 19.07708333334263], [73.56291666660904, 19.0762500000093], [73.56208333327571, 19.0762500000093], [73.56208333327571, 19.075416666675967], [73.55958333327571, 19.075416666675967], [73.55958333327571, 19.074583333342634], [73.55791666660903, 19.074583333342634], [73.55791666660903, 19.0737500000093], [73.5570833332757, 19.0737500000093], [73.5570833332757, 19.0762500000093], [73.55624999994237, 19.0762500000093], [73.55624999994237, 19.07708333334263], [73.5545833332757, 19.07708333334263], [73.5545833332757, 19.077916666675968], [73.55374999994237, 19.077916666675968], [73.55374999994237, 19.0787500000093], [73.55291666660904, 19.0787500000093], [73.55291666660904, 19.079583333342633], [73.5520833332757, 19.079583333342633], [73.5520833332757, 19.080416666675966], [73.55041666660904, 19.080416666675966], [73.55041666660904, 19.079583333342633], [73.5495833332757, 19.079583333342633], [73.5495833332757, 19.0787500000093], [73.54624999994238, 19.0787500000093], [73.54624999994238, 19.079583333342633], [73.54541666660904, 19.079583333342633], [73.54541666660904, 19.080416666675966], [73.54458333327571, 19.080416666675966], [73.54458333327571, 19.079583333342633], [73.54374999994238, 19.079583333342633], [73.54374999994238, 19.080416666675966], [73.54124999994238, 19.080416666675966], [73.54124999994238, 19.0787500000093], [73.54041666660905, 19.0787500000093], [73.54041666660905, 19.077916666675968], [73.53874999994238, 19.077916666675968], [73.53874999994238, 19.07708333334263], [73.53791666660905, 19.07708333334263], [73.53791666660905, 19.075416666675967], [73.53624999994237, 19.075416666675967], [73.53624999994237, 19.074583333342634], [73.53374999994237, 19.074583333342634], [73.53374999994237, 19.0737500000093], [73.53291666660904, 19.0737500000093], [73.53291666660904, 19.072083333342633], [73.53208333327571, 19.072083333342633], [73.53208333327571, 19.070416666675968], [73.53124999994237, 19.070416666675968], [73.53124999994237, 19.069583333342635], [73.53041666660904, 19.069583333342635], [73.53041666660904, 19.06791666667597], [73.53124999994237, 19.06791666667597], [73.53124999994237, 19.063750000009303], [73.53208333327571, 19.063750000009303], [73.53208333327571, 19.06208333334264], [73.53291666660904, 19.06208333334264], [73.53291666660904, 19.05708333334264], [73.53541666660904, 19.05708333334264], [73.53541666660904, 19.056250000009303], [73.53791666660905, 19.056250000009303], [73.53791666660905, 19.05541666667597], [73.53958333327571, 19.05541666667597], [73.53958333327571, 19.054583333342638], [73.54124999994238, 19.054583333342638], [73.54124999994238, 19.052916666675973], [73.54374999994238, 19.052916666675973], [73.54374999994238, 19.051250000009304], [73.54458333327571, 19.051250000009304], [73.54458333327571, 19.04958333334264], [73.54541666660904, 19.04958333334264], [73.54541666660904, 19.04708333334264], [73.54458333327571, 19.04708333334264], [73.54458333327571, 19.045416666675973], [73.54374999994238, 19.045416666675973], [73.54374999994238, 19.042916666675975], [73.54291666660905, 19.042916666675975], [73.54291666660905, 19.03625000000931], [73.54208333327571, 19.03625000000931], [73.54208333327571, 19.035416666675975], [73.54291666660905, 19.035416666675975], [73.54291666660905, 19.034583333342642], [73.54374999994238, 19.034583333342642], [73.54374999994238, 19.03375000000931], [73.54458333327571, 19.03375000000931], [73.54458333327571, 19.032916666675977], [73.54624999994238, 19.032916666675977], [73.54624999994238, 19.032083333342644], [73.54708333327571, 19.032083333342644], [73.54708333327571, 19.030416666675976], [73.54791666660904, 19.030416666675976], [73.54791666660904, 19.029583333342643], [73.54874999994237, 19.029583333342643], [73.54874999994237, 19.027083333342645], [73.5495833332757, 19.027083333342645], [73.5495833332757, 19.026250000009313], [73.55041666660904, 19.026250000009313], [73.55041666660904, 19.02375000000931], [73.55124999994237, 19.02375000000931], [73.55124999994237, 19.02291666667598], [73.5520833332757, 19.02291666667598], [73.5520833332757, 19.021250000009314], [73.55291666660904, 19.021250000009314], [73.55291666660904, 19.019583333342645], [73.55374999994237, 19.019583333342645], [73.55374999994237, 19.01791666667598], [73.5570833332757, 19.01791666667598], [73.5570833332757, 19.017083333342647], [73.55791666660903, 19.017083333342647], [73.55791666660903, 19.007916666675982], [73.55874999994238, 19.007916666675982], [73.55874999994238, 19.006250000009317], [73.55958333327571, 19.006250000009317], [73.55958333327571, 19.00458333334265], [73.56041666660904, 19.00458333334265], [73.56041666660904, 19.003750000009315], [73.56124999994238, 19.003750000009315], [73.56124999994238, 19.00208333334265], [73.56208333327571, 19.00208333334265], [73.56208333327571, 18.999583333342652], [73.56291666660904, 18.999583333342652], [73.56291666660904, 18.99708333334265], [73.56374999994237, 18.99708333334265], [73.56374999994237, 18.99625000000932], [73.56208333327571, 18.99625000000932], [73.56208333327571, 18.995416666675986], [73.56041666660904, 18.995416666675986], [73.56041666660904, 18.994583333342653], [73.55958333327571, 18.994583333342653], [73.55958333327571, 18.993750000009317], [73.55874999994238, 18.993750000009317], [73.55874999994238, 18.992916666675985], [73.5570833332757, 18.992916666675985], [73.5570833332757, 18.992083333342652], [73.55624999994237, 18.992083333342652], [73.55624999994237, 18.99125000000932], [73.55541666660903, 18.99125000000932], [73.55541666660903, 18.989583333342654], [73.5545833332757, 18.989583333342654], [73.5545833332757, 18.98875000000932], [73.55374999994237, 18.98875000000932], [73.55374999994237, 18.987916666675986], [73.55124999994237, 18.987916666675986], [73.55124999994237, 18.987083333342653], [73.55041666660904, 18.987083333342653], [73.55041666660904, 18.98625000000932], [73.54791666660904, 18.98625000000932], [73.54791666660904, 18.987083333342653], [73.54624999994238, 18.987083333342653], [73.54624999994238, 18.98625000000932], [73.54124999994238, 18.98625000000932], [73.54124999994238, 18.987083333342653], [73.53958333327571, 18.987083333342653], [73.53958333327571, 18.987916666675986], [73.53791666660905, 18.987916666675986], [73.53791666660905, 18.987083333342653], [73.5370833332757, 18.987083333342653], [73.5370833332757, 18.98625000000932], [73.53624999994237, 18.98625000000932], [73.53624999994237, 18.985416666675988], [73.53541666660904, 18.985416666675988], [73.53541666660904, 18.984583333342655], [73.5345833332757, 18.984583333342655], [73.5345833332757, 18.983750000009323], [73.53374999994237, 18.983750000009323], [73.53374999994237, 18.982916666675987], [73.53291666660904, 18.982916666675987], [73.53291666660904, 18.982083333342654], [73.53041666660904, 18.982083333342654], [73.53041666660904, 18.98125000000932], [73.52958333327571, 18.98125000000932], [73.52958333327571, 18.98041666667599], [73.52874999994238, 18.98041666667599], [73.52874999994238, 18.977916666675988], [73.52958333327571, 18.977916666675988], [73.52958333327571, 18.977083333342655], [73.52874999994238, 18.977083333342655], [73.52874999994238, 18.974583333342657], [73.52958333327571, 18.974583333342657], [73.52958333327571, 18.97291666667599], [73.53041666660904, 18.97291666667599], [73.53041666660904, 18.972083333342656], [73.53124999994237, 18.972083333342656], [73.53124999994237, 18.971250000009324], [73.53208333327571, 18.971250000009324], [73.53208333327571, 18.97041666667599], [73.53291666660904, 18.97041666667599], [73.53291666660904, 18.967083333342657], [73.53374999994237, 18.967083333342657], [73.53374999994237, 18.966250000009325], [73.5345833332757, 18.966250000009325], [73.5345833332757, 18.965416666675992], [73.53541666660904, 18.965416666675992], [73.53541666660904, 18.963750000009327], [73.5370833332757, 18.963750000009327], [73.5370833332757, 18.962916666675994], [73.53791666660905, 18.962916666675994], [73.53791666660905, 18.962083333342658], [73.53874999994238, 18.962083333342658], [73.53874999994238, 18.961250000009326], [73.53958333327571, 18.961250000009326], [73.53958333327571, 18.957916666675995], [73.54041666660905, 18.957916666675995], [73.54041666660905, 18.956250000009327], [73.54124999994238, 18.956250000009327], [73.54124999994238, 18.95458333334266], [73.54291666660905, 18.95458333334266], [73.54291666660905, 18.95375000000933], [73.54374999994238, 18.95375000000933], [73.54374999994238, 18.95208333334266], [73.54458333327571, 18.95208333334266], [73.54458333327571, 18.949583333342662], [73.55041666660904, 18.949583333342662], [73.55041666660904, 18.94875000000933], [73.5495833332757, 18.94875000000933], [73.5495833332757, 18.94625000000933], [73.55041666660904, 18.94625000000933], [73.55041666660904, 18.942916666676], [73.5495833332757, 18.942916666676], [73.5495833332757, 18.942083333342666], [73.54874999994237, 18.942083333342666], [73.54874999994237, 18.94125000000933], [73.54791666660904, 18.94125000000933], [73.54791666660904, 18.940416666675997], [73.54708333327571, 18.940416666675997], [73.54708333327571, 18.939583333342664], [73.54624999994238, 18.939583333342664], [73.54624999994238, 18.938750000009332], [73.54458333327571, 18.938750000009332], [73.54458333327571, 18.937916666676], [73.54291666660905, 18.937916666676], [73.54291666660905, 18.937083333342667], [73.54124999994238, 18.937083333342667], [73.54124999994238, 18.93625000000933], [73.53958333327571, 18.93625000000933], [73.53958333327571, 18.933750000009333], [73.53874999994238, 18.933750000009333], [73.53874999994238, 18.930416666676], [73.53791666660905, 18.930416666676], [73.53791666660905, 18.927916666676], [73.5370833332757, 18.927916666676], [73.5370833332757, 18.92708333334267], [73.53624999994237, 18.92708333334267], [73.53624999994237, 18.926250000009333], [73.53541666660904, 18.926250000009333], [73.53541666660904, 18.925416666676], [73.5345833332757, 18.925416666676], [73.5345833332757, 18.924583333342667], [73.53374999994237, 18.924583333342667], [73.53374999994237, 18.923750000009335], [73.53291666660904, 18.923750000009335], [73.53291666660904, 18.922916666676002], [73.53208333327571, 18.922916666676002], [73.53208333327571, 18.92208333334267], [73.52958333327571, 18.92208333334267], [73.52958333327571, 18.922916666676002], [73.52874999994238, 18.922916666676002], [73.52874999994238, 18.92208333334267], [73.52791666660904, 18.92208333334267], [73.52791666660904, 18.921250000009337], [73.52708333327571, 18.921250000009337], [73.52708333327571, 18.920416666676], [73.52374999994238, 18.920416666676], [73.52374999994238, 18.91958333334267], [73.52291666660905, 18.91958333334267], [73.52291666660905, 18.918750000009336], [73.52208333327572, 18.918750000009336], [73.52208333327572, 18.917916666676003], [73.52124999994238, 18.917916666676003], [73.52124999994238, 18.91708333334267], [73.52041666660905, 18.91708333334267], [73.52041666660905, 18.916250000009338], [73.51958333327572, 18.916250000009338], [73.51958333327572, 18.912916666676004], [73.52041666660905, 18.912916666676004], [73.52041666660905, 18.910416666676003], [73.52124999994238, 18.910416666676003], [73.52124999994238, 18.907083333342673], [73.52208333327572, 18.907083333342673], [73.52208333327572, 18.90625000000934], [73.52374999994238, 18.90625000000934], [73.52374999994238, 18.905416666676004], [73.52458333327571, 18.905416666676004], [73.52458333327571, 18.90041666667601], [73.52374999994238, 18.90041666667601], [73.52374999994238, 18.89875000000934], [73.52291666660905, 18.89875000000934], [73.52291666660905, 18.897916666676007], [73.52124999994238, 18.897916666676007], [73.52124999994238, 18.89541666667601], [73.52291666660905, 18.89541666667601], [73.52291666660905, 18.89375000000934], [73.52374999994238, 18.89375000000934], [73.52374999994238, 18.892083333342676], [73.52291666660905, 18.892083333342676], [73.52291666660905, 18.889583333342674], [73.52208333327572, 18.889583333342674], [73.52208333327572, 18.88541666667601], [73.52124999994238, 18.88541666667601], [73.52124999994238, 18.884583333342675], [73.52041666660905, 18.884583333342675], [73.52041666660905, 18.882083333342678], [73.51958333327572, 18.882083333342678], [73.51958333327572, 18.880416666676012], [73.51874999994239, 18.880416666676012], [73.51874999994239, 18.87958333334268], [73.51791666660905, 18.87958333334268], [73.51791666660905, 18.87708333334268], [73.51708333327572, 18.87708333334268], [73.51708333327572, 18.873750000009345], [73.51791666660905, 18.873750000009345], [73.51791666660905, 18.867916666676013], [73.51708333327572, 18.867916666676013], [73.51708333327572, 18.86708333334268], [73.51624999994237, 18.86708333334268], [73.51624999994237, 18.866250000009348], [73.51541666660904, 18.866250000009348], [73.51541666660904, 18.862916666676014], [73.51208333327571, 18.862916666676014], [73.51208333327571, 18.863750000009347], [73.50791666660905, 18.863750000009347], [73.50791666660905, 18.864583333342683], [73.50708333327572, 18.864583333342683], [73.50708333327572, 18.866250000009348], [73.50624999994238, 18.866250000009348], [73.50624999994238, 18.86708333334268], [73.50541666660905, 18.86708333334268], [73.50541666660905, 18.867916666676013], [73.50458333327572, 18.867916666676013], [73.50458333327572, 18.868750000009346], [73.50374999994239, 18.868750000009346], [73.50374999994239, 18.870416666676014], [73.50124999994239, 18.870416666676014], [73.50124999994239, 18.871250000009347], [73.50041666660906, 18.871250000009347], [73.50041666660906, 18.87208333334268], [73.49958333327572, 18.87208333334268], [73.49958333327572, 18.872916666676012], [73.49791666660906, 18.872916666676012], [73.49791666660906, 18.873750000009345], [73.49708333327573, 18.873750000009345], [73.49708333327573, 18.872916666676012], [73.49541666660905, 18.872916666676012], [73.49541666660905, 18.873750000009345], [73.49458333327571, 18.873750000009345], [73.49458333327571, 18.875416666676013], [73.49291666660905, 18.875416666676013], [73.49291666660905, 18.87708333334268], [73.49041666660905, 18.87708333334268], [73.49041666660905, 18.876250000009346], [73.48874999994239, 18.876250000009346], [73.48874999994239, 18.87708333334268], [73.48791666660905, 18.87708333334268], [73.48791666660905, 18.87791666667601], [73.48541666660905, 18.87791666667601], [73.48541666660905, 18.878750000009344], [73.48374999994239, 18.878750000009344], [73.48374999994239, 18.87958333334268], [73.48291666660906, 18.87958333334268], [73.48291666660906, 18.880416666676012], [73.48124999994239, 18.880416666676012], [73.48124999994239, 18.881250000009345], [73.47791666660906, 18.881250000009345], [73.47791666660906, 18.882083333342678], [73.47541666660906, 18.882083333342678], [73.47541666660906, 18.88291666667601], [73.47291666660905, 18.88291666667601], [73.47291666660905, 18.883750000009343], [73.46958333327572, 18.883750000009343], [73.46958333327572, 18.882083333342678], [73.46874999994239, 18.882083333342678], [73.46874999994239, 18.87958333334268], [73.46791666660906, 18.87958333334268], [73.46791666660906, 18.87708333334268], [73.46708333327572, 18.87708333334268], [73.46708333327572, 18.872916666676012], [73.46624999994239, 18.872916666676012], [73.46624999994239, 18.87208333334268], [73.46541666660906, 18.87208333334268], [73.46541666660906, 18.854583333342685], [73.46624999994239, 18.854583333342685], [73.46624999994239, 18.853750000009352], [73.46708333327572, 18.853750000009352], [73.46708333327572, 18.85125000000935], [73.46624999994239, 18.85125000000935], [73.46624999994239, 18.848750000009353], [73.46541666660906, 18.848750000009353], [73.46541666660906, 18.841250000009353], [73.46624999994239, 18.841250000009353], [73.46624999994239, 18.84041666667602], [73.46708333327572, 18.84041666667602], [73.46708333327572, 18.839583333342688], [73.46958333327572, 18.839583333342688], [73.46958333327572, 18.838750000009355], [73.47041666660905, 18.838750000009355], [73.47041666660905, 18.832916666676024], [73.47124999994239, 18.832916666676024], [73.47124999994239, 18.831250000009355], [73.47291666660905, 18.831250000009355], [73.47291666660905, 18.830416666676022], [73.47374999994238, 18.830416666676022], [73.47374999994238, 18.825416666676023], [73.47291666660905, 18.825416666676023], [73.47291666660905, 18.82458333334269], [73.47208333327572, 18.82458333334269], [73.47208333327572, 18.819583333342692], [73.47291666660905, 18.819583333342692], [73.47291666660905, 18.817083333342694], [73.47208333327572, 18.817083333342694], [73.47208333327572, 18.80875000000936], [73.47124999994239, 18.80875000000936], [73.47124999994239, 18.797083333342698], [73.47208333327572, 18.797083333342698], [73.47208333327572, 18.79541666667603], [73.47124999994239, 18.79541666667603], [73.47124999994239, 18.791250000009367], [73.47291666660905, 18.791250000009367], [73.47291666660905, 18.79041666667603], [73.47374999994238, 18.79041666667603], [73.47374999994238, 18.789583333342698], [73.4787499999424, 18.789583333342698], [73.4787499999424, 18.79041666667603], [73.48208333327572, 18.79041666667603], [73.48208333327572, 18.788750000009365], [73.48124999994239, 18.788750000009365], [73.48124999994239, 18.787916666676033], [73.48041666660906, 18.787916666676033], [73.48041666660906, 18.7795833333427], [73.47958333327573, 18.7795833333427], [73.47958333327573, 18.778750000009367], [73.4787499999424, 18.778750000009367], [73.4787499999424, 18.777916666676035], [73.47791666660906, 18.777916666676035], [73.47791666660906, 18.777083333342702], [73.47708333327573, 18.777083333342702], [73.47708333327573, 18.7745833333427], [73.47791666660906, 18.7745833333427], [73.47791666660906, 18.772083333342703], [73.47708333327573, 18.772083333342703], [73.47708333327573, 18.76875000000937], [73.47791666660906, 18.76875000000937], [73.47791666660906, 18.767083333342704], [73.4762499999424, 18.767083333342704], [73.4762499999424, 18.76541666667604], [73.47541666660906, 18.76541666667604], [73.47541666660906, 18.762916666676038], [73.47458333327572, 18.762916666676038], [73.47458333327572, 18.762083333342705], [73.47708333327573, 18.762083333342705], [73.47708333327573, 18.761250000009372], [73.47791666660906, 18.761250000009372], [73.47791666660906, 18.759583333342704], [73.47958333327573, 18.759583333342704], [73.47958333327573, 18.75875000000937], [73.48041666660906, 18.75875000000937], [73.48041666660906, 18.757083333342706], [73.48124999994239, 18.757083333342706], [73.48124999994239, 18.75458333334271], [73.48208333327572, 18.75458333334271], [73.48208333327572, 18.75291666667604], [73.48124999994239, 18.75291666667604], [73.48124999994239, 18.748750000009373], [73.48208333327572, 18.748750000009373], [73.48208333327572, 18.74791666667604], [73.48291666660906, 18.74791666667604], [73.48291666660906, 18.736250000009377], [73.48374999994239, 18.736250000009377], [73.48374999994239, 18.735416666676045], [73.48458333327572, 18.735416666676045], [73.48458333327572, 18.734583333342712], [73.48541666660905, 18.734583333342712], [73.48541666660905, 18.732916666676044], [73.48624999994239, 18.732916666676044], [73.48624999994239, 18.73125000000938], [73.48708333327572, 18.73125000000938], [73.48708333327572, 18.729583333342713], [73.48791666660905, 18.729583333342713], [73.48791666660905, 18.727916666676045], [73.48874999994239, 18.727916666676045], [73.48874999994239, 18.724583333342714], [73.48958333327572, 18.724583333342714], [73.48958333327572, 18.72125000000938], [73.49291666660905, 18.72125000000938], [73.49291666660905, 18.722083333342713], [73.49374999994238, 18.722083333342713], [73.49374999994238, 18.72375000000938], [73.49624999994239, 18.72375000000938], [73.49624999994239, 18.724583333342714], [73.49791666660906, 18.724583333342714], [73.49791666660906, 18.725416666676047], [73.49874999994239, 18.725416666676047], [73.49874999994239, 18.72625000000938], [73.50041666660906, 18.72625000000938], [73.50041666660906, 18.727083333342712], [73.50291666660905, 18.727083333342712], [73.50291666660905, 18.727916666676045], [73.50541666660905, 18.727916666676045], [73.50541666660905, 18.72875000000938], [73.50791666660905, 18.72875000000938], [73.50791666660905, 18.727916666676045], [73.50958333327571, 18.727916666676045], [73.50958333327571, 18.727083333342712], [73.51124999994238, 18.727083333342712], [73.51124999994238, 18.72625000000938], [73.51291666660904, 18.72625000000938], [73.51291666660904, 18.725416666676047], [73.51374999994238, 18.725416666676047], [73.51374999994238, 18.724583333342714], [73.51458333327571, 18.724583333342714], [73.51458333327571, 18.72375000000938], [73.51624999994237, 18.72375000000938], [73.51624999994237, 18.722916666676046], [73.51791666660905, 18.722916666676046], [73.51791666660905, 18.722083333342713], [73.51958333327572, 18.722083333342713], [73.51958333327572, 18.72125000000938], [73.52124999994238, 18.72125000000938], [73.52124999994238, 18.720416666676048], [73.52208333327572, 18.720416666676048], [73.52208333327572, 18.72125000000938], [73.52458333327571, 18.72125000000938], [73.52458333327571, 18.722083333342713], [73.52624999994238, 18.722083333342713], [73.52624999994238, 18.72125000000938], [73.52874999994238, 18.72125000000938], [73.52874999994238, 18.722083333342713], [73.53041666660904, 18.722083333342713], [73.53041666660904, 18.72375000000938], [73.53124999994237, 18.72375000000938], [73.53124999994237, 18.724583333342714], [73.53208333327571, 18.724583333342714], [73.53208333327571, 18.72625000000938], [73.5345833332757, 18.72625000000938], [73.5345833332757, 18.727083333342712], [73.53541666660904, 18.727083333342712], [73.53541666660904, 18.72875000000938], [73.53624999994237, 18.72875000000938], [73.53624999994237, 18.73208333334271], [73.5370833332757, 18.73208333334271], [73.5370833332757, 18.734583333342712], [73.53874999994238, 18.734583333342712], [73.53874999994238, 18.735416666676045], [73.54124999994238, 18.735416666676045], [73.54124999994238, 18.736250000009377], [73.54208333327571, 18.736250000009377], [73.54208333327571, 18.73708333334271], [73.54458333327571, 18.73708333334271], [73.54458333327571, 18.736250000009377], [73.54624999994238, 18.736250000009377], [73.54624999994238, 18.735416666676045], [73.54791666660904, 18.735416666676045], [73.54791666660904, 18.734583333342712], [73.5495833332757, 18.734583333342712], [73.5495833332757, 18.73375000000938], [73.55041666660904, 18.73375000000938], [73.55041666660904, 18.732916666676044], [73.55124999994237, 18.732916666676044], [73.55124999994237, 18.73125000000938], [73.5520833332757, 18.73125000000938], [73.5520833332757, 18.730416666676046], [73.55291666660904, 18.730416666676046], [73.55291666660904, 18.729583333342713], [73.55374999994237, 18.729583333342713], [73.55374999994237, 18.72875000000938], [73.55541666660903, 18.72875000000938], [73.55541666660903, 18.727916666676045], [73.5570833332757, 18.727916666676045], [73.5570833332757, 18.72875000000938], [73.56541666660904, 18.72875000000938], [73.56541666660904, 18.729583333342713], [73.56624999994237, 18.729583333342713], [73.56624999994237, 18.72875000000938], [73.56791666660904, 18.72875000000938], [73.56791666660904, 18.727916666676045], [73.56874999994237, 18.727916666676045], [73.56874999994237, 18.72875000000938], [73.57374999994236, 18.72875000000938], [73.57374999994236, 18.727916666676045], [73.57541666660903, 18.727916666676045], [73.57541666660903, 18.727083333342712], [73.5795833332757, 18.727083333342712], [73.5795833332757, 18.72625000000938], [73.58124999994237, 18.72625000000938], [73.58124999994237, 18.725416666676047], [73.58291666660904, 18.725416666676047], [73.58291666660904, 18.724583333342714], [73.5845833332757, 18.724583333342714], [73.5845833332757, 18.72375000000938], [73.59624999994236, 18.72375000000938], [73.59624999994236, 18.724583333342714], [73.60124999994237, 18.724583333342714], [73.60124999994237, 18.725416666676047], [73.6045833332757, 18.725416666676047], [73.6045833332757, 18.72625000000938], [73.61458333327569, 18.72625000000938], [73.61458333327569, 18.727083333342712], [73.61624999994235, 18.727083333342712], [73.61624999994235, 18.727916666676045], [73.61791666660902, 18.727916666676045], [73.61791666660902, 18.72875000000938], [73.61874999994235, 18.72875000000938], [73.61874999994235, 18.727916666676045], [73.62041666660902, 18.727916666676045], [73.62041666660902, 18.727083333342712], [73.62291666660903, 18.727083333342712], [73.62291666660903, 18.72625000000938], [73.6245833332757, 18.72625000000938], [73.6245833332757, 18.725416666676047], [73.62874999994236, 18.725416666676047], [73.62874999994236, 18.724583333342714], [73.63041666660902, 18.724583333342714], [73.63041666660902, 18.725416666676047], [73.63291666660902, 18.725416666676047], [73.63291666660902, 18.72625000000938], [73.63624999994235, 18.72625000000938], [73.63624999994235, 18.725416666676047], [73.63874999994235, 18.725416666676047], [73.63874999994235, 18.724583333342714], [73.64041666660901, 18.724583333342714], [73.64041666660901, 18.72375000000938], [73.64208333327569, 18.72375000000938], [73.64208333327569, 18.722916666676046], [73.64291666660903, 18.722916666676046], [73.64291666660903, 18.722083333342713], [73.64458333327569, 18.722083333342713], [73.64458333327569, 18.72125000000938], [73.64541666660902, 18.72125000000938], [73.64541666660902, 18.720416666676048], [73.64958333327569, 18.720416666676048], [73.64958333327569, 18.719583333342715], [73.65041666660902, 18.719583333342715], [73.65041666660902, 18.718750000009383], [73.65124999994235, 18.718750000009383], [73.65124999994235, 18.717916666676047], [73.65291666660902, 18.717916666676047], [73.65291666660902, 18.717083333342714], [73.65374999994235, 18.717083333342714], [73.65374999994235, 18.71625000000938], [73.65708333327568, 18.71625000000938], [73.65708333327568, 18.71541666667605], [73.65791666660901, 18.71541666667605], [73.65791666660901, 18.714583333342716], [73.65958333327568, 18.714583333342716], [73.65958333327568, 18.713750000009384], [73.66458333327569, 18.713750000009384], [73.66458333327569, 18.71291666667605], [73.66624999994235, 18.71291666667605], [73.66624999994235, 18.712083333342715], [73.66874999994235, 18.712083333342715], [73.66874999994235, 18.711250000009382], [73.67374999994234, 18.711250000009382], [73.67374999994234, 18.71041666667605], [73.67708333327568, 18.71041666667605], [73.67708333327568, 18.709583333342717], [73.67958333327567, 18.709583333342717], [73.67958333327567, 18.708750000009385], [73.680416666609, 18.708750000009385], [73.680416666609, 18.709583333342717], [73.68458333327568, 18.709583333342717], [73.68458333327568, 18.708750000009385], [73.68624999994235, 18.708750000009385], [73.68624999994235, 18.707916666676052], [73.68708333327568, 18.707916666676052], [73.68708333327568, 18.70458333334272], [73.68791666660901, 18.70458333334272], [73.68791666660901, 18.702916666676053], [73.68874999994235, 18.702916666676053], [73.68874999994235, 18.700416666676052], [73.68958333327568, 18.700416666676052], [73.68958333327568, 18.697916666676054], [73.69041666660901, 18.697916666676054], [73.69041666660901, 18.697083333342718], [73.69124999994234, 18.697083333342718], [73.69124999994234, 18.695416666676053], [73.69291666660901, 18.695416666676053], [73.69291666660901, 18.69458333334272], [73.69708333327567, 18.69458333334272], [73.69708333327567, 18.693750000009388], [73.700416666609, 18.693750000009388], [73.700416666609, 18.692916666676055], [73.70541666660901, 18.692916666676055], [73.70541666660901, 18.692083333342723], [73.70624999994234, 18.692083333342723], [73.70624999994234, 18.691250000009386], [73.70708333327568, 18.691250000009386], [73.70708333327568, 18.68958333334272], [73.70791666660901, 18.68958333334272], [73.70791666660901, 18.68875000000939], [73.70874999994234, 18.68875000000939], [73.70874999994234, 18.687916666676056], [73.71208333327567, 18.687916666676056], [73.71208333327567, 18.687083333342724], [73.71874999994233, 18.687083333342724], [73.71874999994233, 18.686250000009387], [73.720416666609, 18.686250000009387], [73.720416666609, 18.685416666676055], [73.72208333327566, 18.685416666676055], [73.72208333327566, 18.684583333342722], [73.722916666609, 18.684583333342722], [73.722916666609, 18.68375000000939], [73.72458333327566, 18.68375000000939], [73.72458333327566, 18.682916666676057], [73.73208333327567, 18.682916666676057], [73.73208333327567, 18.682083333342725], [73.732916666609, 18.682083333342725], [73.732916666609, 18.682916666676057], [73.74124999994233, 18.682916666676057], [73.74124999994233, 18.68375000000939], [73.74458333327566, 18.68375000000939], [73.74458333327566, 18.682916666676057], [73.747916666609, 18.682916666676057], [73.747916666609, 18.682083333342725], [73.74874999994233, 18.682083333342725], [73.74874999994233, 18.68125000000939], [73.74958333327567, 18.68125000000939], [73.74958333327567, 18.680416666676056], [73.75124999994233, 18.680416666676056], [73.75124999994233, 18.679583333342723], [73.752916666609, 18.679583333342723], [73.752916666609, 18.67875000000939], [73.75374999994233, 18.67875000000939], [73.75374999994233, 18.674583333342724], [73.75458333327566, 18.674583333342724], [73.75458333327566, 18.671250000009394], [73.75874999994232, 18.671250000009394], [73.75874999994232, 18.672083333342727], [73.75958333327566, 18.672083333342727], [73.75958333327566, 18.67291666667606], [73.76041666660899, 18.67291666667606], [73.76041666660899, 18.67375000000939], [73.76458333327565, 18.67375000000939], [73.76458333327565, 18.67291666667606], [73.76624999994232, 18.67291666667606], [73.76624999994232, 18.672083333342727], [73.76708333327566, 18.672083333342727], [73.76708333327566, 18.67291666667606], [73.767916666609, 18.67291666667606], [73.767916666609, 18.67375000000939], [73.77208333327566, 18.67375000000939], [73.77208333327566, 18.674583333342724], [73.77291666660899, 18.674583333342724], [73.77291666660899, 18.675416666676057], [73.77458333327566, 18.675416666676057], [73.77458333327566, 18.674583333342724], [73.77541666660899, 18.674583333342724], [73.77541666660899, 18.67375000000939], [73.77791666660899, 18.67375000000939], [73.77791666660899, 18.67291666667606], [73.77874999994232, 18.67291666667606], [73.77874999994232, 18.672083333342727], [73.78041666660899, 18.672083333342727], [73.78041666660899, 18.671250000009394], [73.78124999994232, 18.671250000009394], [73.78124999994232, 18.668750000009393], [73.78208333327565, 18.668750000009393], [73.78208333327565, 18.66791666667606], [73.78291666660898, 18.66791666667606], [73.78291666660898, 18.667083333342728], [73.78624999994231, 18.667083333342728], [73.78624999994231, 18.666250000009395], [73.78708333327565, 18.666250000009395], [73.78708333327565, 18.667083333342728], [73.79041666660899, 18.667083333342728], [73.79041666660899, 18.666250000009395], [73.79291666660899, 18.666250000009395], [73.79291666660899, 18.66541666667606], [73.79458333327565, 18.66541666667606], [73.79458333327565, 18.664583333342726], [73.79541666660899, 18.664583333342726], [73.79541666660899, 18.66291666667606], [73.79708333327565, 18.66291666667606], [73.79708333327565, 18.66208333334273], [73.79874999994232, 18.66208333334273], [73.79874999994232, 18.661250000009396], [73.79958333327565, 18.661250000009396], [73.79958333327565, 18.66041666667606], [73.80041666660898, 18.66041666667606], [73.80041666660898, 18.661250000009396], [73.80124999994231, 18.661250000009396], [73.80124999994231, 18.66041666667606], [73.80291666660898, 18.66041666667606], [73.80291666660898, 18.659583333342727], [73.80374999994231, 18.659583333342727], [73.80374999994231, 18.658750000009395], [73.80458333327564, 18.658750000009395], [73.80458333327564, 18.657916666676062], [73.80624999994231, 18.657916666676062], [73.80624999994231, 18.65708333334273], [73.81124999994232, 18.65708333334273], [73.81124999994232, 18.656250000009397], [73.81208333327565, 18.656250000009397], [73.81208333327565, 18.65541666667606], [73.81291666660898, 18.65541666667606], [73.81291666660898, 18.65458333334273], [73.81374999994232, 18.65458333334273], [73.81374999994232, 18.65541666667606], [73.81708333327565, 18.65541666667606], [73.81708333327565, 18.653750000009396], [73.81791666660898, 18.653750000009396], [73.81791666660898, 18.652916666676063], [73.81874999994231, 18.652916666676063], [73.81874999994231, 18.651250000009398], [73.81958333327565, 18.651250000009398], [73.81958333327565, 18.65208333334273], [73.82041666660898, 18.65208333334273], [73.82041666660898, 18.652916666676063], [73.82124999994231, 18.652916666676063], [73.82124999994231, 18.65458333334273], [73.82208333327564, 18.65458333334273], [73.82208333327564, 18.65541666667606], [73.82291666660898, 18.65541666667606], [73.82291666660898, 18.656250000009397], [73.82458333327564, 18.656250000009397], [73.82458333327564, 18.65708333334273], [73.82541666660897, 18.65708333334273], [73.82541666660897, 18.657916666676062], [73.8262499999423, 18.657916666676062], [73.8262499999423, 18.65708333334273], [73.82708333327564, 18.65708333334273], [73.82708333327564, 18.656250000009397], [73.82791666660897, 18.656250000009397], [73.82791666660897, 18.652916666676063], [73.8287499999423, 18.652916666676063], [73.8287499999423, 18.65208333334273], [73.83708333327564, 18.65208333334273], [73.83708333327564, 18.652916666676063], [73.83874999994231, 18.652916666676063], [73.83874999994231, 18.653750000009396], [73.83958333327564, 18.653750000009396], [73.83958333327564, 18.65458333334273], [73.84041666660897, 18.65458333334273], [73.84041666660897, 18.653750000009396], [73.8412499999423, 18.653750000009396], [73.8412499999423, 18.64958333334273], [73.84208333327564, 18.64958333334273], [73.84208333327564, 18.647916666676064], [73.84291666660897, 18.647916666676064], [73.84291666660897, 18.64708333334273], [73.8487499999423, 18.64708333334273], [73.8487499999423, 18.6462500000094], [73.85041666660898, 18.6462500000094], [73.85041666660898, 18.64708333334273], [73.85291666660898, 18.64708333334273], [73.85291666660898, 18.647916666676064], [73.8562499999423, 18.647916666676064], [73.8562499999423, 18.648750000009397], [73.85791666660897, 18.648750000009397], [73.85791666660897, 18.647916666676064], [73.8587499999423, 18.647916666676064], [73.8587499999423, 18.64708333334273], [73.85791666660897, 18.64708333334273], [73.85791666660897, 18.645416666676066], [73.8587499999423, 18.645416666676066], [73.8587499999423, 18.643750000009398], [73.85958333327564, 18.643750000009398], [73.85958333327564, 18.642916666676065], [73.86041666660897, 18.642916666676065], [73.86041666660897, 18.642083333342732], [73.85958333327564, 18.642083333342732], [73.85958333327564, 18.63958333334273], [73.8612499999423, 18.63958333334273], [73.8612499999423, 18.6387500000094], [73.86708333327563, 18.6387500000094], [73.86708333327563, 18.637916666676066], [73.86958333327563, 18.637916666676066], [73.86958333327563, 18.637083333342733], [73.87124999994231, 18.637083333342733], [73.87124999994231, 18.6362500000094], [73.87291666660897, 18.6362500000094], [73.87291666660897, 18.63541666667607], [73.8737499999423, 18.63541666667607], [73.8737499999423, 18.634583333342732], [73.87458333327564, 18.634583333342732], [73.87458333327564, 18.632083333342734], [73.87541666660897, 18.632083333342734], [73.87541666660897, 18.63041666667607], [73.8762499999423, 18.63041666667607], [73.8762499999423, 18.6287500000094], [73.87708333327564, 18.6287500000094], [73.87708333327564, 18.627083333342735], [73.87791666660897, 18.627083333342735], [73.87791666660897, 18.626250000009403], [73.8787499999423, 18.626250000009403], [73.8787499999423, 18.62541666667607], [73.87958333327563, 18.62541666667607], [73.87958333327563, 18.624583333342738], [73.8812499999423, 18.624583333342738], [73.8812499999423, 18.6237500000094], [73.8862499999423, 18.6237500000094], [73.8862499999423, 18.621250000009404], [73.88708333327563, 18.621250000009404], [73.88708333327563, 18.61791666667607], [73.88791666660896, 18.61791666667607], [73.88791666660896, 18.617083333342737], [73.89791666660896, 18.617083333342737], [73.89791666660896, 18.616250000009405], [73.89958333327563, 18.616250000009405], [73.89958333327563, 18.615416666676072], [73.9012499999423, 18.615416666676072], [73.9012499999423, 18.61458333334274], [73.90374999994229, 18.61458333334274], [73.90374999994229, 18.615416666676072], [73.90624999994229, 18.615416666676072], [73.90624999994229, 18.616250000009405], [73.90874999994229, 18.616250000009405], [73.90874999994229, 18.617083333342737], [73.90958333327562, 18.617083333342737], [73.90958333327562, 18.61791666667607], [73.91291666660896, 18.61791666667607], [73.91291666660896, 18.618750000009403], [73.92041666660896, 18.618750000009403], [73.92041666660896, 18.615416666676072], [73.92541666660895, 18.615416666676072], [73.92541666660895, 18.61458333334274], [73.92624999994229, 18.61458333334274], [73.92624999994229, 18.61291666667607], [73.92708333327562, 18.61291666667607], [73.92708333327562, 18.61208333334274], [73.92791666660895, 18.61208333334274], [73.92791666660895, 18.610416666676073], [73.92874999994228, 18.610416666676073], [73.92874999994228, 18.608750000009408], [73.92958333327562, 18.608750000009408], [73.92958333327562, 18.607916666676072], [73.93124999994228, 18.607916666676072], [73.93124999994228, 18.606250000009407], [73.93208333327561, 18.606250000009407], [73.93208333327561, 18.60458333334274], [73.93291666660895, 18.60458333334274], [73.93291666660895, 18.60375000000941], [73.9337499999423, 18.60375000000941], [73.9337499999423, 18.602916666676073], [73.93624999994229, 18.602916666676073], [73.93624999994229, 18.601250000009408], [73.93958333327562, 18.601250000009408], [73.93958333327562, 18.60208333334274], [73.94624999994228, 18.60208333334274], [73.94624999994228, 18.59875000000941], [73.94874999994228, 18.59875000000941], [73.94874999994228, 18.597916666676074], [73.95041666660894, 18.597916666676074], [73.95041666660894, 18.599583333342743], [73.95124999994228, 18.599583333342743], [73.95124999994228, 18.59875000000941], [73.95208333327561, 18.59875000000941], [73.95208333327561, 18.597916666676074], [73.95291666660894, 18.597916666676074], [73.95291666660894, 18.59708333334274], [73.95541666660895, 18.59708333334274], [73.95541666660895, 18.59625000000941], [73.95874999994228, 18.59625000000941], [73.95874999994228, 18.59875000000941], [73.95958333327562, 18.59875000000941], [73.95958333327562, 18.599583333342743], [73.96041666660895, 18.599583333342743], [73.96041666660895, 18.60208333334274], [73.96208333327561, 18.60208333334274], [73.96208333327561, 18.60708333334274], [73.96708333327561, 18.60708333334274], [73.96708333327561, 18.606250000009407], [73.96791666660894, 18.606250000009407], [73.96791666660894, 18.60458333334274], [73.96874999994228, 18.60458333334274], [73.96874999994228, 18.60375000000941], [73.96958333327561, 18.60375000000941], [73.96958333327561, 18.602916666676073], [73.97041666660894, 18.602916666676073], [73.97041666660894, 18.60208333334274], [73.9745833332756, 18.60208333334274], [73.9745833332756, 18.601250000009408], [73.98041666660895, 18.601250000009408], [73.98041666660895, 18.60208333334274], [73.98291666660894, 18.60208333334274], [73.98291666660894, 18.602916666676073], [73.98458333327561, 18.602916666676073], [73.98458333327561, 18.60208333334274], [73.98624999994227, 18.60208333334274], [73.98624999994227, 18.602916666676073], [73.98791666660894, 18.602916666676073], [73.98791666660894, 18.60375000000941], [73.98874999994227, 18.60375000000941], [73.98874999994227, 18.60458333334274], [73.9920833332756, 18.60458333334274], [73.9920833332756, 18.60375000000941], [73.99374999994227, 18.60375000000941], [73.99374999994227, 18.60458333334274], [73.99791666660894, 18.60458333334274], [73.99791666660894, 18.60375000000941], [73.99874999994228, 18.60375000000941], [73.99874999994228, 18.602916666676073], [73.99958333327561, 18.602916666676073], [73.99958333327561, 18.600416666676075], [74.00041666660894, 18.600416666676075], [74.00041666660894, 18.599583333342743], [74.00124999994227, 18.599583333342743], [74.00124999994227, 18.59708333334274], [74.0020833332756, 18.59708333334274], [74.0020833332756, 18.594583333342744], [74.00291666660894, 18.594583333342744], [74.00291666660894, 18.592916666676075], [74.00374999994227, 18.592916666676075], [74.00374999994227, 18.592083333342742], [74.00541666660894, 18.592083333342742], [74.00541666660894, 18.590416666676077], [74.00624999994227, 18.590416666676077], [74.00624999994227, 18.588750000009412], [74.0070833332756, 18.588750000009412], [74.0070833332756, 18.587083333342743], [74.00791666660893, 18.587083333342743], [74.00791666660893, 18.58625000000941], [74.0095833332756, 18.58625000000941], [74.0095833332756, 18.584583333342746], [74.01124999994227, 18.584583333342746], [74.01124999994227, 18.58625000000941], [74.0120833332756, 18.58625000000941], [74.0120833332756, 18.587083333342743], [74.01291666660893, 18.587083333342743], [74.01291666660893, 18.58791666667608], [74.01374999994226, 18.58791666667608], [74.01374999994226, 18.588750000009412], [74.0145833332756, 18.588750000009412], [74.0145833332756, 18.589583333342745], [74.01624999994226, 18.589583333342745], [74.01624999994226, 18.590416666676077], [74.01874999994227, 18.590416666676077], [74.01874999994227, 18.59125000000941], [74.02041666660894, 18.59125000000941], [74.02041666660894, 18.592083333342742], [74.02124999994227, 18.592083333342742], [74.02124999994227, 18.59125000000941], [74.0220833332756, 18.59125000000941], [74.0220833332756, 18.590416666676077], [74.02291666660894, 18.590416666676077], [74.02291666660894, 18.589583333342745], [74.02541666660893, 18.589583333342745], [74.02541666660893, 18.588750000009412], [74.0270833332756, 18.588750000009412], [74.0270833332756, 18.58791666667608], [74.0295833332756, 18.58791666667608], [74.0295833332756, 18.588750000009412], [74.03124999994226, 18.588750000009412], [74.03124999994226, 18.589583333342745], [74.03374999994226, 18.589583333342745], [74.03374999994226, 18.588750000009412], [74.03541666660892, 18.588750000009412], [74.03541666660892, 18.58791666667608], [74.03624999994226, 18.58791666667608], [74.03624999994226, 18.587083333342743], [74.03708333327559, 18.587083333342743], [74.03708333327559, 18.58625000000941], [74.03791666660894, 18.58625000000941], [74.03791666660894, 18.58541666667608], [74.03874999994227, 18.58541666667608], [74.03874999994227, 18.584583333342746], [74.03791666660894, 18.584583333342746], [74.03791666660894, 18.583750000009413], [74.04041666660893, 18.583750000009413], [74.04041666660893, 18.58291666667608], [74.04124999994227, 18.58291666667608], [74.04124999994227, 18.581250000009412], [74.0420833332756, 18.581250000009412], [74.0420833332756, 18.58041666667608], [74.04624999994226, 18.58041666667608], [74.04624999994226, 18.581250000009412], [74.05124999994226, 18.581250000009412], [74.05124999994226, 18.582083333342744], [74.05291666660892, 18.582083333342744], [74.05291666660892, 18.58291666667608], [74.05458333327559, 18.58291666667608], [74.05458333327559, 18.583750000009413], [74.05541666660892, 18.583750000009413], [74.05541666660892, 18.584583333342746], [74.05624999994225, 18.584583333342746], [74.05624999994225, 18.58541666667608], [74.06374999994226, 18.58541666667608], [74.06374999994226, 18.58625000000941], [74.06541666660893, 18.58625000000941], [74.06541666660893, 18.587083333342743], [74.06624999994226, 18.587083333342743], [74.06624999994226, 18.58791666667608], [74.06708333327559, 18.58791666667608], [74.06708333327559, 18.588750000009412], [74.06791666660892, 18.588750000009412], [74.06791666660892, 18.589583333342745], [74.07124999994225, 18.589583333342745], [74.07124999994225, 18.588750000009412], [74.07291666660892, 18.588750000009412], [74.07291666660892, 18.58791666667608], [74.07458333327558, 18.58791666667608], [74.07458333327558, 18.588750000009412], [74.07541666660892, 18.588750000009412], [74.07541666660892, 18.58791666667608], [74.07874999994225, 18.58791666667608], [74.07874999994225, 18.587083333342743], [74.08291666660892, 18.587083333342743], [74.08291666660892, 18.58791666667608], [74.08624999994225, 18.58791666667608], [74.08624999994225, 18.588750000009412], [74.08958333327558, 18.588750000009412], [74.08958333327558, 18.589583333342745], [74.09041666660892, 18.589583333342745], [74.09041666660892, 18.590416666676077], [74.09124999994225, 18.590416666676077], [74.09124999994225, 18.59125000000941], [74.09208333327558, 18.59125000000941], [74.09208333327558, 18.592083333342742], [74.09291666660891, 18.592083333342742], [74.09291666660891, 18.60375000000941], [74.09124999994225, 18.60375000000941], [74.09124999994225, 18.606250000009407], [74.09208333327558, 18.606250000009407], [74.09208333327558, 18.607916666676072], [74.09291666660891, 18.607916666676072], [74.09291666660891, 18.621250000009404], [74.09208333327558, 18.621250000009404], [74.09208333327558, 18.622083333342736], [74.09124999994225, 18.622083333342736], [74.09124999994225, 18.62291666667607], [74.09041666660892, 18.62291666667607], [74.09041666660892, 18.6237500000094], [74.09124999994225, 18.6237500000094], [74.09124999994225, 18.624583333342738], [74.09291666660891, 18.624583333342738], [74.09291666660891, 18.627083333342735], [74.09208333327558, 18.627083333342735], [74.09208333327558, 18.631250000009402], [74.09291666660891, 18.631250000009402], [74.09291666660891, 18.632083333342734], [74.09374999994225, 18.632083333342734], [74.09374999994225, 18.632916666676067], [74.09291666660891, 18.632916666676067], [74.09291666660891, 18.634583333342732], [74.09208333327558, 18.634583333342732], [74.09208333327558, 18.63541666667607], [74.09041666660892, 18.63541666667607], [74.09041666660892, 18.6362500000094], [74.08874999994225, 18.6362500000094], [74.08874999994225, 18.637083333342733], [74.08791666660892, 18.637083333342733], [74.08791666660892, 18.63958333334273], [74.08624999994225, 18.63958333334273], [74.08624999994225, 18.642083333342732], [74.08541666660892, 18.642083333342732], [74.08541666660892, 18.642916666676065], [74.08458333327559, 18.642916666676065], [74.08458333327559, 18.64458333334273], [74.08541666660892, 18.64458333334273], [74.08541666660892, 18.647916666676064], [74.08624999994225, 18.647916666676064], [74.08624999994225, 18.64958333334273], [74.08541666660892, 18.64958333334273], [74.08541666660892, 18.651250000009398], [74.08458333327559, 18.651250000009398], [74.08458333327559, 18.65208333334273], [74.08374999994226, 18.65208333334273], [74.08374999994226, 18.652916666676063], [74.08291666660892, 18.652916666676063], [74.08291666660892, 18.653750000009396], [74.08374999994226, 18.653750000009396], [74.08374999994226, 18.65458333334273], [74.08458333327559, 18.65458333334273], [74.08458333327559, 18.65708333334273], [74.08541666660892, 18.65708333334273], [74.08541666660892, 18.657916666676062], [74.08624999994225, 18.657916666676062], [74.08624999994225, 18.658750000009395], [74.08958333327558, 18.658750000009395], [74.08958333327558, 18.659583333342727], [74.09041666660892, 18.659583333342727], [74.09041666660892, 18.66041666667606], [74.09124999994225, 18.66041666667606], [74.09124999994225, 18.664583333342726], [74.09208333327558, 18.664583333342726], [74.09208333327558, 18.66541666667606], [74.09291666660891, 18.66541666667606], [74.09291666660891, 18.667083333342728], [74.09208333327558, 18.667083333342728], [74.09208333327558, 18.671250000009394], [74.09291666660891, 18.671250000009394], [74.09291666660891, 18.672083333342727], [74.09208333327558, 18.672083333342727], [74.09208333327558, 18.67291666667606], [74.09124999994225, 18.67291666667606], [74.09124999994225, 18.67375000000939], [74.08958333327558, 18.67375000000939], [74.08958333327558, 18.674583333342724], [74.08874999994225, 18.674583333342724], [74.08874999994225, 18.67375000000939], [74.08541666660892, 18.67375000000939], [74.08541666660892, 18.675416666676057], [74.08458333327559, 18.675416666676057], [74.08458333327559, 18.677083333342726], [74.08041666660893, 18.677083333342726], [74.08041666660893, 18.677916666676058], [74.0795833332756, 18.677916666676058], [74.0795833332756, 18.67875000000939], [74.07874999994225, 18.67875000000939], [74.07874999994225, 18.679583333342723], [74.07791666660891, 18.679583333342723], [74.07791666660891, 18.680416666676056], [74.07874999994225, 18.680416666676056], [74.07874999994225, 18.682083333342725], [74.07791666660891, 18.682083333342725], [74.07791666660891, 18.68875000000939], [74.07708333327558, 18.68875000000939], [74.07708333327558, 18.68958333334272], [74.07624999994225, 18.68958333334272], [74.07624999994225, 18.691250000009386], [74.07708333327558, 18.691250000009386], [74.07708333327558, 18.692083333342723], [74.0795833332756, 18.692083333342723], [74.0795833332756, 18.692916666676055], [74.08208333327559, 18.692916666676055], [74.08208333327559, 18.692083333342723], [74.08291666660892, 18.692083333342723], [74.08291666660892, 18.692916666676055], [74.08374999994226, 18.692916666676055], [74.08374999994226, 18.693750000009388], [74.08458333327559, 18.693750000009388], [74.08458333327559, 18.69458333334272], [74.08374999994226, 18.69458333334272], [74.08374999994226, 18.695416666676053], [74.08291666660892, 18.695416666676053], [74.08291666660892, 18.697083333342718], [74.08124999994226, 18.697083333342718], [74.08124999994226, 18.698750000009387], [74.08041666660893, 18.698750000009387], [74.08041666660893, 18.69958333334272], [74.0795833332756, 18.69958333334272], [74.0795833332756, 18.700416666676052], [74.07874999994225, 18.700416666676052], [74.07874999994225, 18.70458333334272], [74.07791666660891, 18.70458333334272], [74.07791666660891, 18.70541666667605], [74.07708333327558, 18.70541666667605], [74.07708333327558, 18.706250000009383], [74.07791666660891, 18.706250000009383], [74.07791666660891, 18.71041666667605], [74.07874999994225, 18.71041666667605], [74.07874999994225, 18.725416666676047], [74.07791666660891, 18.725416666676047], [74.07791666660891, 18.72875000000938], [74.07708333327558, 18.72875000000938], [74.07708333327558, 18.729583333342713], [74.07541666660892, 18.729583333342713], [74.07541666660892, 18.730416666676046], [74.07374999994225, 18.730416666676046], [74.07374999994225, 18.73125000000938], [74.07291666660892, 18.73125000000938], [74.07291666660892, 18.73208333334271], [74.07208333327559, 18.73208333334271], [74.07208333327559, 18.73375000000938], [74.07124999994225, 18.73375000000938], [74.07124999994225, 18.734583333342712], [74.07208333327559, 18.734583333342712], [74.07208333327559, 18.736250000009377], [74.07124999994225, 18.736250000009377], [74.07124999994225, 18.737916666676043], [74.06958333327559, 18.737916666676043], [74.06958333327559, 18.738750000009375], [74.07041666660892, 18.738750000009375], [74.07041666660892, 18.740416666676044], [74.06791666660892, 18.740416666676044], [74.06791666660892, 18.741250000009376], [74.06624999994226, 18.741250000009376], [74.06624999994226, 18.74208333334271], [74.06541666660893, 18.74208333334271], [74.06541666660893, 18.741250000009376], [74.06458333327559, 18.741250000009376], [74.06458333327559, 18.74208333334271], [74.06041666660893, 18.74208333334271], [74.06041666660893, 18.743750000009374], [74.0595833332756, 18.743750000009374], [74.0595833332756, 18.74458333334271], [74.05874999994226, 18.74458333334271], [74.05874999994226, 18.745416666676043], [74.05374999994226, 18.745416666676043], [74.05374999994226, 18.746250000009375], [74.05291666660892, 18.746250000009375], [74.05291666660892, 18.747083333342708], [74.05124999994226, 18.747083333342708], [74.05124999994226, 18.748750000009373], [74.05041666660892, 18.748750000009373], [74.05041666660892, 18.74958333334271], [74.04958333327559, 18.74958333334271], [74.04958333327559, 18.750416666676042], [74.04791666660893, 18.750416666676042], [74.04791666660893, 18.752083333342707], [74.0470833332756, 18.752083333342707], [74.0470833332756, 18.75291666667604], [74.04374999994226, 18.75291666667604], [74.04374999994226, 18.753750000009372], [74.04041666660893, 18.753750000009372], [74.04041666660893, 18.75458333334271], [74.0395833332756, 18.75458333334271], [74.0395833332756, 18.75541666667604], [74.03874999994227, 18.75541666667604], [74.03874999994227, 18.75458333334271], [74.03791666660894, 18.75458333334271], [74.03791666660894, 18.75291666667604], [74.03708333327559, 18.75291666667604], [74.03708333327559, 18.750416666676042], [74.03624999994226, 18.750416666676042], [74.03624999994226, 18.748750000009373], [74.03291666660893, 18.748750000009373], [74.03291666660893, 18.74791666667604], [74.0320833332756, 18.74791666667604], [74.0320833332756, 18.748750000009373], [74.03124999994226, 18.748750000009373], [74.03124999994226, 18.750416666676042], [74.03041666660893, 18.750416666676042], [74.03041666660893, 18.751250000009374], [74.0295833332756, 18.751250000009374], [74.0295833332756, 18.752083333342707], [74.02791666660893, 18.752083333342707], [74.02791666660893, 18.75291666667604], [74.0270833332756, 18.75291666667604], [74.0270833332756, 18.753750000009372], [74.02541666660893, 18.753750000009372], [74.02541666660893, 18.756250000009373], [74.02374999994227, 18.756250000009373], [74.02374999994227, 18.75791666667604], [74.02291666660894, 18.75791666667604], [74.02291666660894, 18.75875000000937], [74.02374999994227, 18.75875000000937], [74.02374999994227, 18.761250000009372], [74.02291666660894, 18.761250000009372], [74.02291666660894, 18.762916666676038], [74.0220833332756, 18.762916666676038], [74.0220833332756, 18.76375000000937], [74.02041666660894, 18.76375000000937], [74.02041666660894, 18.76541666667604], [74.01874999994227, 18.76541666667604], [74.01874999994227, 18.764583333342703], [74.01791666660894, 18.764583333342703], [74.01791666660894, 18.76541666667604], [74.01708333327561, 18.76541666667604], [74.01708333327561, 18.76625000000937], [74.01541666660893, 18.76625000000937], [74.01541666660893, 18.767083333342704], [74.01374999994226, 18.767083333342704], [74.01374999994226, 18.767916666676037], [74.0120833332756, 18.767916666676037], [74.0120833332756, 18.76875000000937], [74.0095833332756, 18.76875000000937], [74.0095833332756, 18.770416666676038], [74.01041666660893, 18.770416666676038], [74.01041666660893, 18.773750000009368], [74.01124999994227, 18.773750000009368], [74.01124999994227, 18.7745833333427], [74.01041666660893, 18.7745833333427], [74.01041666660893, 18.775416666676037], [74.0095833332756, 18.775416666676037], [74.0095833332756, 18.777083333342702], [74.00791666660893, 18.777083333342702], [74.00791666660893, 18.777916666676035], [74.0070833332756, 18.777916666676035], [74.0070833332756, 18.780416666676032], [74.00624999994227, 18.780416666676032], [74.00624999994227, 18.782916666676034], [74.00541666660894, 18.782916666676034], [74.00541666660894, 18.783750000009366], [74.0045833332756, 18.783750000009366], [74.0045833332756, 18.78541666667603], [74.00374999994227, 18.78541666667603], [74.00374999994227, 18.7870833333427], [74.00291666660894, 18.7870833333427], [74.00291666660894, 18.787916666676033], [74.00124999994227, 18.787916666676033], [74.00124999994227, 18.788750000009365], [74.00041666660894, 18.788750000009365], [74.00041666660894, 18.79041666667603], [73.99958333327561, 18.79041666667603], [73.99958333327561, 18.793750000009364], [74.00041666660894, 18.793750000009364], [74.00041666660894, 18.794583333342697], [74.00124999994227, 18.794583333342697], [74.00124999994227, 18.79541666667603], [74.00041666660894, 18.79541666667603], [74.00041666660894, 18.79791666667603], [73.99874999994228, 18.79791666667603], [73.99874999994228, 18.798750000009363], [73.99791666660894, 18.798750000009363], [73.99791666660894, 18.799583333342696], [73.99708333327561, 18.799583333342696], [73.99708333327561, 18.80041666667603], [73.99624999994228, 18.80041666667603], [73.99624999994228, 18.80125000000936], [73.99541666660893, 18.80125000000936], [73.99541666660893, 18.802083333342697], [73.9945833332756, 18.802083333342697], [73.9945833332756, 18.80291666667603], [73.99374999994227, 18.80291666667603], [73.99374999994227, 18.802083333342697], [73.9920833332756, 18.802083333342697], [73.9920833332756, 18.80291666667603], [73.99041666660894, 18.80291666667603], [73.99041666660894, 18.803750000009362], [73.9870833332756, 18.803750000009362], [73.9870833332756, 18.804583333342695], [73.98624999994227, 18.804583333342695], [73.98624999994227, 18.805416666676027], [73.98541666660894, 18.805416666676027], [73.98541666660894, 18.80625000000936], [73.98458333327561, 18.80625000000936], [73.98458333327561, 18.807083333342696], [73.98374999994228, 18.807083333342696], [73.98374999994228, 18.80875000000936], [73.97874999994228, 18.80875000000936], [73.97874999994228, 18.810416666676026], [73.97791666660895, 18.810416666676026], [73.97791666660895, 18.81125000000936], [73.97708333327562, 18.81125000000936], [73.97708333327562, 18.81375000000936], [73.97624999994228, 18.81375000000936], [73.97624999994228, 18.814583333342693], [73.9745833332756, 18.814583333342693], [73.9745833332756, 18.815416666676025], [73.97374999994227, 18.815416666676025], [73.97374999994227, 18.817083333342694], [73.97041666660894, 18.817083333342694], [73.97041666660894, 18.817916666676027], [73.96958333327561, 18.817916666676027], [73.96958333327561, 18.81875000000936], [73.96874999994228, 18.81875000000936], [73.96874999994228, 18.819583333342692], [73.96791666660894, 18.819583333342692], [73.96791666660894, 18.821250000009357], [73.96458333327561, 18.821250000009357], [73.96458333327561, 18.82208333334269], [73.96541666660895, 18.82208333334269], [73.96541666660895, 18.822916666676026], [73.96458333327561, 18.822916666676026], [73.96458333327561, 18.826250000009356], [73.96541666660895, 18.826250000009356], [73.96541666660895, 18.827916666676025], [73.96624999994228, 18.827916666676025], [73.96624999994228, 18.828750000009357], [73.96791666660894, 18.828750000009357], [73.96791666660894, 18.830416666676022], [73.96874999994228, 18.830416666676022], [73.96874999994228, 18.84041666667602], [73.96791666660894, 18.84041666667602], [73.96791666660894, 18.841250000009353], [73.96708333327561, 18.841250000009353], [73.96708333327561, 18.843750000009354], [73.96624999994228, 18.843750000009354], [73.96624999994228, 18.844583333342687], [73.96708333327561, 18.844583333342687], [73.96708333327561, 18.846250000009352], [73.96624999994228, 18.846250000009352], [73.96624999994228, 18.849583333342686], [73.96541666660895, 18.849583333342686], [73.96541666660895, 18.852083333342684], [73.96624999994228, 18.852083333342684], [73.96624999994228, 18.852916666676016], [73.96708333327561, 18.852916666676016], [73.96708333327561, 18.853750000009352], [73.96874999994228, 18.853750000009352], [73.96874999994228, 18.854583333342685], [73.96791666660894, 18.854583333342685], [73.96791666660894, 18.85625000000935], [73.96708333327561, 18.85625000000935], [73.96708333327561, 18.857083333342683], [73.96374999994228, 18.857083333342683], [73.96374999994228, 18.857916666676015], [73.96124999994228, 18.857916666676015], [73.96124999994228, 18.857083333342683], [73.95874999994228, 18.857083333342683], [73.95874999994228, 18.85625000000935], [73.95791666660895, 18.85625000000935], [73.95791666660895, 18.857083333342683], [73.95624999994229, 18.857083333342683], [73.95624999994229, 18.857916666676015], [73.95541666660895, 18.857916666676015], [73.95541666660895, 18.85875000000935], [73.95374999994227, 18.85875000000935], [73.95374999994227, 18.859583333342684], [73.95291666660894, 18.859583333342684], [73.95291666660894, 18.860416666676016], [73.95208333327561, 18.860416666676016], [73.95208333327561, 18.86208333334268], [73.94958333327561, 18.86208333334268], [73.94958333327561, 18.86125000000935], [73.94624999994228, 18.86125000000935], [73.94624999994228, 18.864583333342683], [73.94541666660895, 18.864583333342683], [73.94541666660895, 18.865416666676015], [73.94374999994228, 18.865416666676015], [73.94374999994228, 18.86708333334268], [73.94291666660895, 18.86708333334268], [73.94291666660895, 18.870416666676014], [73.94124999994229, 18.870416666676014], [73.94124999994229, 18.871250000009347], [73.93958333327562, 18.871250000009347], [73.93958333327562, 18.870416666676014], [73.93791666660896, 18.870416666676014], [73.93791666660896, 18.87208333334268], [73.93708333327562, 18.87208333334268], [73.93708333327562, 18.872916666676012], [73.93624999994229, 18.872916666676012], [73.93624999994229, 18.873750000009345], [73.9337499999423, 18.873750000009345], [73.9337499999423, 18.87458333334268], [73.93458333327563, 18.87458333334268], [73.93458333327563, 18.881250000009345], [73.93541666660896, 18.881250000009345], [73.93541666660896, 18.882083333342678], [73.93874999994229, 18.882083333342678], [73.93874999994229, 18.881250000009345], [73.94291666660895, 18.881250000009345], [73.94291666660895, 18.882083333342678], [73.94374999994228, 18.882083333342678], [73.94374999994228, 18.88291666667601], [73.94541666660895, 18.88291666667601], [73.94541666660895, 18.886250000009344], [73.94624999994228, 18.886250000009344], [73.94624999994228, 18.887083333342677], [73.94791666660895, 18.887083333342677], [73.94791666660895, 18.88791666667601], [73.94874999994228, 18.88791666667601], [73.94874999994228, 18.89041666667601], [73.94624999994228, 18.89041666667601], [73.94624999994228, 18.892916666676008], [73.94541666660895, 18.892916666676008], [73.94541666660895, 18.89375000000934], [73.94458333327562, 18.89375000000934], [73.94458333327562, 18.894583333342673], [73.94541666660895, 18.894583333342673], [73.94541666660895, 18.89541666667601], [73.94458333327562, 18.89541666667601], [73.94458333327562, 18.897083333342675], [73.94541666660895, 18.897083333342675], [73.94541666660895, 18.897916666676007], [73.94458333327562, 18.897916666676007], [73.94458333327562, 18.89875000000934], [73.94374999994228, 18.89875000000934], [73.94374999994228, 18.897916666676007], [73.94291666660895, 18.897916666676007], [73.94291666660895, 18.89875000000934], [73.94208333327562, 18.89875000000934], [73.94208333327562, 18.90041666667601], [73.94291666660895, 18.90041666667601], [73.94291666660895, 18.90458333334267], [73.94041666660895, 18.90458333334267], [73.94041666660895, 18.90625000000934], [73.93958333327562, 18.90625000000934], [73.93958333327562, 18.907083333342673], [73.93874999994229, 18.907083333342673], [73.93874999994229, 18.910416666676003], [73.93708333327562, 18.910416666676003], [73.93708333327562, 18.91125000000934], [73.93541666660896, 18.91125000000934], [73.93541666660896, 18.91208333334267], [73.9337499999423, 18.91208333334267], [73.9337499999423, 18.912916666676004], [73.93291666660895, 18.912916666676004], [73.93291666660895, 18.913750000009337], [73.93208333327561, 18.913750000009337], [73.93208333327561, 18.915416666676002], [73.93041666660895, 18.915416666676002], [73.93041666660895, 18.916250000009338], [73.92958333327562, 18.916250000009338], [73.92958333327562, 18.91708333334267], [73.92791666660895, 18.91708333334267], [73.92791666660895, 18.917916666676003], [73.92708333327562, 18.917916666676003], [73.92708333327562, 18.91708333334267], [73.92374999994229, 18.91708333334267], [73.92374999994229, 18.917916666676003], [73.92291666660896, 18.917916666676003], [73.92291666660896, 18.918750000009336], [73.92124999994229, 18.918750000009336], [73.92124999994229, 18.91958333334267], [73.92041666660896, 18.91958333334267], [73.92041666660896, 18.922916666676002], [73.91958333327563, 18.922916666676002], [73.91958333327563, 18.923750000009335], [73.91791666660896, 18.923750000009335], [73.91791666660896, 18.924583333342667], [73.9162499999423, 18.924583333342667], [73.9162499999423, 18.925416666676], [73.91541666660896, 18.925416666676], [73.91541666660896, 18.926250000009333], [73.91458333327563, 18.926250000009333], [73.91458333327563, 18.92708333334267], [73.9137499999423, 18.92708333334267], [73.9137499999423, 18.927916666676], [73.91291666660896, 18.927916666676], [73.91291666660896, 18.929583333342666], [73.91208333327562, 18.929583333342666], [73.91208333327562, 18.932083333342668], [73.91124999994229, 18.932083333342668], [73.91124999994229, 18.932916666676], [73.91041666660895, 18.932916666676], [73.91041666660895, 18.932083333342668], [73.90958333327562, 18.932083333342668], [73.90958333327562, 18.932916666676], [73.90874999994229, 18.932916666676], [73.90874999994229, 18.933750000009333], [73.90791666660895, 18.933750000009333], [73.90791666660895, 18.93625000000933], [73.90708333327562, 18.93625000000933], [73.90708333327562, 18.937083333342667], [73.90541666660896, 18.937083333342667], [73.90541666660896, 18.937916666676], [73.90458333327562, 18.937916666676], [73.90458333327562, 18.939583333342664], [73.90374999994229, 18.939583333342664], [73.90374999994229, 18.940416666675997], [73.90291666660896, 18.940416666675997], [73.90291666660896, 18.94125000000933], [73.90208333327563, 18.94125000000933], [73.90208333327563, 18.94375000000933], [73.90291666660896, 18.94375000000933], [73.90291666660896, 18.944583333342663], [73.90208333327563, 18.944583333342663], [73.90208333327563, 18.945416666675996], [73.9012499999423, 18.945416666675996], [73.9012499999423, 18.94625000000933], [73.90041666660896, 18.94625000000933], [73.90041666660896, 18.94708333334266], [73.89958333327563, 18.94708333334266], [73.89958333327563, 18.947916666675997], [73.89791666660896, 18.947916666675997], [73.89791666660896, 18.94875000000933], [73.89708333327563, 18.94875000000933], [73.89708333327563, 18.949583333342662], [73.8962499999423, 18.949583333342662], [73.8962499999423, 18.950416666675995], [73.89458333327563, 18.950416666675995], [73.89458333327563, 18.951250000009328], [73.89291666660897, 18.951250000009328], [73.89291666660897, 18.95208333334266], [73.89208333327564, 18.95208333334266], [73.89208333327564, 18.952916666675996], [73.88958333327562, 18.952916666675996], [73.88958333327562, 18.95375000000933], [73.88791666660896, 18.95375000000933], [73.88791666660896, 18.95708333334266], [73.88708333327563, 18.95708333334266], [73.88708333327563, 18.957916666675995], [73.8862499999423, 18.957916666675995], [73.8862499999423, 18.95708333334266], [73.88041666660897, 18.95708333334266], [73.88041666660897, 18.957916666675995], [73.8787499999423, 18.957916666675995], [73.8787499999423, 18.95708333334266], [73.8762499999423, 18.95708333334266], [73.8762499999423, 18.957916666675995], [73.87458333327564, 18.957916666675995], [73.87458333327564, 18.958750000009328], [73.8737499999423, 18.958750000009328], [73.8737499999423, 18.95958333334266], [73.86791666660896, 18.95958333334266], [73.86791666660896, 18.958750000009328], [73.86708333327563, 18.958750000009328], [73.86708333327563, 18.957916666675995], [73.86541666660897, 18.957916666675995], [73.86541666660897, 18.958750000009328], [73.8637499999423, 18.958750000009328], [73.8637499999423, 18.95958333334266], [73.86291666660897, 18.95958333334266], [73.86291666660897, 18.960416666675993], [73.86208333327563, 18.960416666675993], [73.86208333327563, 18.961250000009326], [73.8612499999423, 18.961250000009326], [73.8612499999423, 18.962083333342658], [73.86041666660897, 18.962083333342658], [73.86041666660897, 18.962916666675994], [73.8587499999423, 18.962916666675994], [73.8587499999423, 18.962083333342658], [73.85791666660897, 18.962083333342658], [73.85791666660897, 18.963750000009327], [73.85708333327564, 18.963750000009327], [73.85708333327564, 18.96458333334266], [73.85541666660897, 18.96458333334266], [73.85541666660897, 18.966250000009325], [73.85458333327564, 18.966250000009325], [73.85458333327564, 18.967083333342657], [73.85291666660898, 18.967083333342657], [73.85291666660898, 18.96791666667599], [73.85124999994231, 18.96791666667599], [73.85124999994231, 18.968750000009326], [73.85041666660898, 18.968750000009326], [73.85041666660898, 18.96958333334266], [73.84958333327563, 18.96958333334266], [73.84958333327563, 18.97041666667599], [73.8462499999423, 18.97041666667599], [73.8462499999423, 18.971250000009324], [73.84458333327564, 18.971250000009324], [73.84458333327564, 18.974583333342657], [73.84541666660897, 18.974583333342657], [73.84541666660897, 18.978750000009324], [73.84458333327564, 18.978750000009324], [73.84458333327564, 18.979583333342656], [73.8437499999423, 18.979583333342656], [73.8437499999423, 18.98125000000932], [73.84291666660897, 18.98125000000932], [73.84291666660897, 18.982916666675987], [73.84208333327564, 18.982916666675987], [73.84208333327564, 18.983750000009323], [73.8412499999423, 18.983750000009323], [73.8412499999423, 18.984583333342655], [73.83791666660898, 18.984583333342655], [73.83791666660898, 18.985416666675988], [73.83624999994231, 18.985416666675988], [73.83624999994231, 18.98625000000932], [73.83541666660898, 18.98625000000932], [73.83541666660898, 18.987083333342653], [73.83458333327565, 18.987083333342653], [73.83458333327565, 18.98875000000932], [73.83374999994231, 18.98875000000932], [73.83374999994231, 18.989583333342654], [73.83291666660898, 18.989583333342654], [73.83291666660898, 18.990416666675987], [73.83124999994232, 18.990416666675987], [73.83124999994232, 18.99125000000932], [73.83041666660898, 18.99125000000932], [73.83041666660898, 18.992083333342652], [73.8287499999423, 18.992083333342652], [73.8287499999423, 18.994583333342653], [73.82708333327564, 18.994583333342653], [73.82708333327564, 18.995416666675986], [73.82541666660897, 18.995416666675986], [73.82541666660897, 18.99625000000932], [73.82458333327564, 18.99625000000932], [73.82458333327564, 18.99708333334265], [73.82291666660898, 18.99708333334265], [73.82291666660898, 18.997916666675984], [73.82208333327564, 18.997916666675984], [73.82208333327564, 18.998750000009316], [73.81624999994231, 18.998750000009316], [73.81624999994231, 18.999583333342652], [73.81374999994232, 18.999583333342652], [73.81374999994232, 19.000416666675985], [73.81291666660898, 19.000416666675985], [73.81291666660898, 19.00208333334265], [73.81208333327565, 19.00208333334265], [73.81208333327565, 19.002916666675983], [73.81041666660899, 19.002916666675983], [73.81041666660899, 19.003750000009315], [73.80958333327565, 19.003750000009315], [73.80958333327565, 19.00458333334265], [73.80791666660897, 19.00458333334265], [73.80791666660897, 19.005416666675984], [73.80124999994231, 19.005416666675984], [73.80124999994231, 19.00708333334265], [73.80041666660898, 19.00708333334265], [73.80041666660898, 19.007916666675982], [73.79958333327565, 19.007916666675982], [73.79958333327565, 19.008750000009314], [73.79874999994232, 19.008750000009314], [73.79874999994232, 19.012083333342648], [73.79791666660898, 19.012083333342648], [73.79791666660898, 19.01291666667598], [73.79624999994232, 19.01291666667598], [73.79624999994232, 19.013750000009313], [73.79124999994232, 19.013750000009313], [73.79124999994232, 19.014583333342646], [73.78958333327566, 19.014583333342646], [73.78958333327566, 19.015416666675982], [73.78874999994233, 19.015416666675982], [73.78874999994233, 19.016250000009315], [73.787916666609, 19.016250000009315], [73.787916666609, 19.017083333342647], [73.78708333327565, 19.017083333342647], [73.78708333327565, 19.01791666667598], [73.78624999994231, 19.01791666667598], [73.78624999994231, 19.018750000009312], [73.78541666660898, 19.018750000009312], [73.78541666660898, 19.019583333342645], [73.78458333327565, 19.019583333342645], [73.78458333327565, 19.02041666667598], [73.78291666660898, 19.02041666667598], [73.78291666660898, 19.021250000009314], [73.78041666660899, 19.021250000009314], [73.78041666660899, 19.02375000000931], [73.77708333327566, 19.02375000000931], [73.77708333327566, 19.024583333342644], [73.77208333327566, 19.024583333342644], [73.77208333327566, 19.027083333342645], [73.770416666609, 19.027083333342645], [73.770416666609, 19.027916666675978], [73.76958333327566, 19.027916666675978], [73.76958333327566, 19.029583333342643], [73.76874999994233, 19.029583333342643], [73.76874999994233, 19.030416666675976], [73.76624999994232, 19.030416666675976], [73.76624999994232, 19.03125000000931], [73.76374999994232, 19.03125000000931], [73.76374999994232, 19.032916666675977], [73.76291666660899, 19.032916666675977], [73.76291666660899, 19.034583333342642], [73.76124999994232, 19.034583333342642], [73.76124999994232, 19.035416666675975], [73.75791666660899, 19.035416666675975], [73.75791666660899, 19.034583333342642], [73.75624999994233, 19.034583333342642], [73.75624999994233, 19.03625000000931], [73.755416666609, 19.03625000000931], [73.755416666609, 19.037083333342643], [73.752916666609, 19.037083333342643], [73.752916666609, 19.037916666675976], [73.75124999994233, 19.037916666675976], [73.75124999994233, 19.03875000000931], [73.74958333327567, 19.03875000000931], [73.74958333327567, 19.03958333334264], [73.747916666609, 19.03958333334264], [73.747916666609, 19.040416666675974], [73.74374999994232, 19.040416666675974], [73.74374999994232, 19.04125000000931], [73.74124999994233, 19.04125000000931], [73.74124999994233, 19.040416666675974], [73.73624999994233, 19.040416666675974], [73.73624999994233, 19.04125000000931], [73.732916666609, 19.04125000000931], [73.732916666609, 19.040416666675974], [73.73208333327567, 19.040416666675974], [73.73208333327567, 19.04125000000931], [73.72958333327567, 19.04125000000931], [73.72958333327567, 19.042083333342642], [73.72708333327567, 19.042083333342642], [73.72708333327567, 19.042916666675975], [73.72624999994234, 19.042916666675975], [73.72624999994234, 19.043750000009307], [73.72458333327566, 19.043750000009307], [73.72458333327566, 19.04458333334264], [73.72208333327566, 19.04458333334264], [73.72208333327566, 19.045416666675973], [73.72124999994233, 19.045416666675973], [73.72124999994233, 19.04708333334264], [73.71958333327566, 19.04708333334264], [73.71958333327566, 19.047916666675974], [73.71874999994233, 19.047916666675974], [73.71874999994233, 19.048750000009306], [73.71708333327567, 19.048750000009306], [73.71708333327567, 19.04958333334264], [73.71458333327567, 19.04958333334264], [73.71458333327567, 19.05041666667597], [73.71374999994234, 19.05041666667597], [73.71374999994234, 19.051250000009304], [73.712916666609, 19.051250000009304], [73.712916666609, 19.05041666667597], [73.71208333327567, 19.05041666667597], [73.71208333327567, 19.04958333334264], [73.70458333327568, 19.04958333334264], [73.70458333327568, 19.05041666667597], [73.70124999994233, 19.05041666667597], [73.70124999994233, 19.051250000009304], [73.697916666609, 19.051250000009304], [73.697916666609, 19.05208333334264], [73.69624999994234, 19.05208333334264], [73.69624999994234, 19.052916666675973], [73.69458333327567, 19.052916666675973], [73.69458333327567, 19.053750000009305], [73.69291666660901, 19.053750000009305], [73.69291666660901, 19.054583333342638], [73.69124999994234, 19.054583333342638], [73.69124999994234, 19.05541666667597], [73.69041666660901, 19.05541666667597], [73.69041666660901, 19.06208333334264], [73.68958333327568, 19.06208333334264], [73.68958333327568, 19.06291666667597], [73.68874999994235, 19.06291666667597], [73.68874999994235, 19.064583333342636], [73.68791666660901, 19.064583333342636], [73.68791666660901, 19.06541666667597], [73.68708333327568, 19.06541666667597], [73.68708333327568, 19.0662500000093], [73.68624999994235, 19.0662500000093], [73.68624999994235, 19.067083333342637], [73.68541666660902, 19.067083333342637], [73.68541666660902, 19.06791666667597], [73.68374999994235, 19.06791666667597], [73.68374999994235, 19.068750000009302], [73.682916666609, 19.068750000009302], [73.682916666609, 19.069583333342635], [73.68208333327567, 19.069583333342635], [73.68208333327567, 19.070416666675968], [73.68124999994234, 19.070416666675968], [73.68124999994234, 19.0712500000093], [73.680416666609, 19.0712500000093], [73.680416666609, 19.072083333342633], [73.67791666660901, 19.072083333342633], [73.67791666660901, 19.07291666667597], [73.67708333327568, 19.07291666667597], [73.67708333327568, 19.0737500000093], [73.67541666660901, 19.0737500000093], [73.67541666660901, 19.075416666675967], [73.67458333327568, 19.075416666675967], [73.67458333327568, 19.0737500000093], [73.67374999994234, 19.0737500000093], [73.67374999994234, 19.07291666667597], [73.67291666660901, 19.07291666667597], [73.67291666660901, 19.0737500000093], [73.67208333327568, 19.0737500000093], [73.67208333327568, 19.074583333342634], [73.66958333327568, 19.074583333342634], [73.66958333327568, 19.0737500000093], [73.66458333327569, 19.0737500000093], [73.66458333327569, 19.07291666667597], [73.66291666660902, 19.07291666667597], [73.66291666660902, 19.072083333342633], [73.66208333327567, 19.072083333342633], [73.66208333327567, 19.0712500000093], [73.66124999994234, 19.0712500000093], [73.66124999994234, 19.072083333342633], [73.65708333327568, 19.072083333342633], [73.65708333327568, 19.07291666667597], [73.65458333327568, 19.07291666667597], [73.65458333327568, 19.0737500000093], [73.65208333327568, 19.0737500000093], [73.65208333327568, 19.074583333342634], [73.65041666660902, 19.074583333342634], [73.65041666660902, 19.075416666675967], [73.64958333327569, 19.075416666675967], [73.64958333327569, 19.077916666675968], [73.64874999994235, 19.077916666675968], [73.64874999994235, 19.0787500000093], [73.64791666660902, 19.0787500000093], [73.64791666660902, 19.079583333342633], [73.64708333327569, 19.079583333342633], [73.64708333327569, 19.080416666675966], [73.64624999994236, 19.080416666675966], [73.64624999994236, 19.081250000009298], [73.64541666660902, 19.081250000009298], [73.64541666660902, 19.082916666675967], [73.64458333327569, 19.082916666675967], [73.64458333327569, 19.0837500000093], [73.64374999994236, 19.0837500000093], [73.64374999994236, 19.084583333342632], [73.64291666660903, 19.084583333342632], [73.64291666660903, 19.085416666675965], [73.64041666660901, 19.085416666675965], [73.64041666660901, 19.084583333342632], [73.63458333327569, 19.084583333342632], [73.63458333327569, 19.0837500000093], [73.63374999994235, 19.0837500000093], [73.63374999994235, 19.082916666675967], [73.63291666660902, 19.082916666675967], [73.63291666660902, 19.08208333334263], [73.63124999994236, 19.08208333334263], [73.63124999994236, 19.081250000009298], [73.63041666660902, 19.081250000009298], [73.63041666660902, 19.080416666675966], [73.62708333327569, 19.080416666675966], [73.62708333327569, 19.081250000009298], [73.62541666660903, 19.081250000009298], [73.62541666660903, 19.08208333334263], [73.62291666660903, 19.08208333334263], [73.62291666660903, 19.082916666675967], [73.62041666660902, 19.082916666675967], [73.62041666660902, 19.0837500000093], [73.61958333327568, 19.0837500000093], [73.61958333327568, 19.084583333342632], [73.61458333327569, 19.084583333342632], [73.61458333327569, 19.085416666675965], [73.61291666660902, 19.085416666675965], [73.61291666660902, 19.086250000009297], [73.61124999994236, 19.086250000009297], [73.61124999994236, 19.08708333334263], [73.60791666660903, 19.08708333334263], [73.60791666660903, 19.087916666675966], [73.6070833332757, 19.087916666675966], [73.6070833332757, 19.08958333334263], [73.60541666660903, 19.08958333334263], [73.60541666660903, 19.091250000009296], [73.6045833332757, 19.091250000009296], [73.6045833332757, 19.09208333334263], [73.60291666660903, 19.09208333334263]]]}}]}