{"type": "FeatureCollection", "features": [{"type": "Feature", "properties": {"name": "PUNE-WDC-1 Micro-Watershed"}, "geometry": {"type": "Polygon", "coordinates": [[[73.87522055209863, 18.855], [73.86886303723284, 18.860742258037526], [73.86841205503146, 18.868412055031456], [73.86428037478674, 18.877404806674058], [73.855, 18.87635838588731], [73.84774355018598, 18.872518619555706], [73.84065643786059, 18.869343562139413], [73.83529662592767, 18.863161404765272], [73.8355791178858, 18.855], [73.83909073675504, 18.848410167396572], [73.84260022576342, 18.84260022576342], [73.84744828849018, 18.836768555653883], [73.855, 18.83247493263561], [73.86326218791719, 18.835053313875477], [73.86797166595532, 18.842028334044688], [73.87020957584564, 18.8486999874068], [73.87522055209863, 18.855]]]}}]}